{"type":"FeatureCollection","features":[{"type":"Feature","properties":{"Name_Geo":"ალგეთის ეროვნული პარკი","Name_Eng":"Algeti National Park","Category":"ეროვნული პარკი","Area_km2":78.65,"Total_ha":7871,"isLabel":true},"geometry":{"type":"Polygon","coordinates":[[[44.330803,41.683384],[44.333003,41.682056],[44.334583,41.682959],[44.335145,41.686239],[44.336105,41.689522],[44.337474,41.691615],[44.339237,41.694157],[44.339619,41.695649],[44.33941,41.69669],[44.335215,41.698751],[44.32944,41.699909],[44.323461,41.701512],[44.315519,41.700721],[44.311951,41.699806],[44.30835,41.702018],[44.302988,41.701688],[44.300391,41.702864],[44.296405,41.703882],[44.291629,41.704448],[44.288042,41.70532],[44.285642,41.706646],[44.286214,41.708883],[44.288372,41.711429],[44.288558,41.712621],[44.291122,41.714425],[44.29489,41.715193],[44.297069,41.715951],[44.297453,41.717145],[44.294459,41.718318],[44.290476,41.718889],[44.286875,41.720952],[44.28467,41.722577],[44.284054,41.72436],[44.285414,41.727199],[44.287177,41.729593],[44.288958,41.730348],[44.291946,41.72992],[44.294754,41.727703],[44.298748,41.726089],[44.300949,41.724762],[44.300778,41.722229],[44.302387,41.720451],[44.307162,41.720182],[44.30757,41.719142],[44.30481,41.71704],[44.302038,41.715981],[44.302466,41.713154],[44.306264,41.71124],[44.307879,41.708867],[44.311476,41.707101],[44.314063,41.706819],[44.316241,41.707576],[44.316817,41.709516],[44.314806,41.711738],[44.315184,41.713528],[44.317959,41.714289],[44.321725,41.715354],[44.325491,41.716419],[44.326668,41.717915],[44.325259,41.719545],[44.322858,41.721021],[44.321642,41.723248],[44.322815,41.725191],[44.324972,41.728033],[44.326544,41.72983],[44.329712,41.73104],[44.334063,41.7333],[44.33642,41.736143],[44.336592,41.738825],[44.336175,41.74061],[44.332168,41.743566],[44.329178,41.744144],[44.323419,41.743366],[44.321648,41.741568],[44.31709,41.740051],[44.317314,41.73767],[44.320131,41.734558],[44.320559,41.731731],[44.319194,41.729191],[44.316224,41.727982],[44.312049,41.727957],[44.30844,41.730765],[44.306804,41.734926],[44.303995,41.737292],[44.297014,41.739186],[44.293435,41.739164],[44.28946,41.73899],[44.287102,41.736444],[44.286725,41.734505],[44.284357,41.732852],[44.281781,41.732091],[44.280615,41.729701],[44.279047,41.727606],[44.276267,41.72729],[44.273489,41.726826],[44.272717,41.724736],[44.272547,41.722203],[44.271573,41.720409],[44.26923,41.716671],[44.267866,41.714279],[44.265688,41.71352],[44.262501,41.714096],[44.259881,41.717207],[44.257877,41.718534],[44.256261,41.720758],[44.253458,41.722527],[44.24828,41.723238],[44.246111,41.721734],[44.241757,41.720067],[44.240006,41.716779],[44.239857,41.712607],[44.240303,41.70844],[44.242718,41.705924],[44.246522,41.703566],[44.247727,41.702531],[44.246355,41.700884],[44.243783,41.699824],[44.239227,41.698603],[44.235857,41.697835],[44.228299,41.698381],[44.2239,41.700585],[44.221667,41.704443],[44.219447,41.709524],[44.21855,41.709947],[44.214308,41.710139],[44.213801,41.710518],[44.213554,41.71165],[44.214834,41.712305],[44.215349,41.712963],[44.215994,41.713903],[44.215872,41.714658],[44.215374,41.716262],[44.214997,41.717112],[44.212964,41.718157],[44.211309,41.71854],[44.210552,41.719768],[44.210178,41.720901],[44.209926,41.721373],[44.209932,41.722127],[44.210066,41.72307],[44.210583,41.72401],[44.211611,41.725043],[44.211615,41.725609],[44.211625,41.726928],[44.211248,41.727684],[44.210488,41.728347],[44.209729,41.729292],[44.20948,41.730048],[44.209489,41.731273],[44.209368,41.732216],[44.208989,41.732783],[44.209005,41.734857],[44.209267,41.735893],[44.20927,41.73627],[44.209151,41.737402],[44.20967,41.738719],[44.212223,41.738992],[44.21362,41.738139],[44.214635,41.73738],[44.215536,41.738508],[44.215165,41.740112],[44.21619,41.740768],[44.217213,41.741141],[44.218874,41.741512],[44.22376,41.743518],[44.225905,41.743045],[44.227025,41.742774],[44.228703,41.742437],[44.22945,41.742233],[44.230942,41.741894],[44.232714,41.741558],[44.234958,41.740597],[44.238395,41.740968],[44.240156,41.741537],[44.241729,41.742175],[44.243025,41.742741],[44.244228,41.743306],[44.244871,41.743937],[44.24681,41.745204],[44.247177,41.745624],[44.248193,41.746258],[44.248649,41.747027],[44.249292,41.747728],[44.250587,41.748433],[44.252627,41.749004],[44.254858,41.749158],[44.256623,41.749309],[44.258763,41.749322],[44.261558,41.748992],[44.263708,41.7481],[44.266326,41.746933],[44.269128,41.745905],[44.271736,41.745643],[44.27527,41.745735],[44.278053,41.74638],[44.280836,41.747094],[44.282593,41.748011],[44.284725,41.748721],[44.286104,41.750192],[44.286738,41.751798],[44.28774,41.753686],[44.288286,41.754804],[44.289483,41.755926],[44.290316,41.756349],[44.291237,41.75726],[44.292348,41.757685],[44.293651,41.757693],[44.295792,41.757567],[44.299515,41.75745],[44.302956,41.757611],[44.304908,41.757831],[44.308629,41.757854],[44.310679,41.757588],[44.313381,41.757255],[44.316915,41.757416],[44.320073,41.757853],[44.32248,41.759051],[44.323584,41.760242],[44.32469,41.761293],[44.325594,41.763807],[44.326316,41.765971],[44.327696,41.767442],[44.328887,41.76926],[44.330178,41.770382],[44.332118,41.771787],[44.336466,41.77432],[44.338783,41.775239],[44.34315,41.775961],[44.345197,41.775973],[44.348271,41.775711],[44.351069,41.7751],[44.353411,41.773581],[44.355197,41.771849],[44.356795,41.770256],[44.358485,41.768732],[44.359241,41.767552],[44.359998,41.766303],[44.361131,41.764637],[44.361309,41.764437],[44.360224,41.762046],[44.357456,41.760392],[44.35311,41.757388],[44.351936,41.755446],[44.353361,41.752177],[44.354376,41.750097],[44.354596,41.748013],[44.357778,41.748031],[44.361535,41.750286],[44.363501,41.752531],[44.365062,41.755668],[44.366844,41.756422],[44.369822,41.757034],[44.371616,41.756632],[44.37242,41.755807],[44.372443,41.753474],[44.370078,41.751227],[44.372681,41.749454],[44.374286,41.747973],[44.379882,41.745174],[44.381303,41.742202],[44.379751,41.738173],[44.378386,41.735335],[44.375614,41.734129],[44.373242,41.732626],[44.369885,41.730225],[44.3699,41.728735],[44.37171,41.72666],[44.37173,41.724575],[44.369167,41.722327],[44.364431,41.718726],[44.362678,41.715142],[44.363295,41.71306],[44.365475,41.713668],[44.366846,41.71576],[44.369623,41.716372],[44.372236,41.713407],[44.374456,41.709993],[44.374983,41.708586],[44.372086,41.708416],[44.369615,41.70805],[44.366877,41.708453],[44.36417,41.70854],[44.360179,41.706489],[44.356431,41.703638],[44.353475,41.701089],[44.35033,41.697646],[44.350151,41.695709],[44.349797,41.693748],[44.351287,41.692839],[44.356066,41.690916],[44.359347,41.689755],[44.362132,41.688468],[44.364673,41.686839],[44.365548,41.68616],[44.368022,41.68415],[44.368886,41.683449],[44.37384,41.680342],[44.374557,41.679013],[44.375885,41.677699],[44.378248,41.675449],[44.378384,41.675164],[44.38018,41.673865],[44.379244,41.672189],[44.378517,41.671275],[44.378443,41.671032],[44.37887,41.67059],[44.381211,41.668802],[44.382646,41.668295],[44.38327,41.667826],[44.383482,41.667584],[44.382856,41.666929],[44.378637,41.668013],[44.364097,41.671955],[44.354114,41.676964],[44.348537,41.678422],[44.341582,41.678531],[44.335832,41.677455],[44.334669,41.674619],[44.334619,41.672848],[44.335297,41.669711],[44.332907,41.66872],[44.331461,41.668426],[44.330724,41.668381],[44.329403,41.6683],[44.327795,41.668862],[44.325738,41.668621],[44.325029,41.668596],[44.3214,41.670669],[44.31976,41.675425],[44.31893,41.678846],[44.310365,41.68088],[44.308156,41.683101],[44.303974,41.683969],[44.297616,41.683931],[44.292649,41.6839],[44.291092,41.680912],[44.286328,41.680584],[44.276969,41.682462],[44.267212,41.684337],[44.264012,41.686104],[44.259417,41.688308],[44.256437,41.688289],[44.24908,41.688688],[44.241132,41.688636],[44.23914,41.689069],[44.239902,41.691904],[44.240276,41.693843],[44.24097,41.694532],[44.241751,41.694646],[44.242829,41.695172],[44.244606,41.695969],[44.245807,41.696554],[44.248099,41.697328],[44.249701,41.697668],[44.251687,41.698917],[44.253111,41.699792],[44.254295,41.70035],[44.256082,41.700511],[44.258519,41.701344],[44.259149,41.702371],[44.259094,41.703331],[44.25869,41.704031],[44.260926,41.705092],[44.262493,41.705182],[44.266682,41.704464],[44.267741,41.704105],[44.269308,41.703573],[44.270535,41.703157],[44.27358,41.702057],[44.275767,41.701211],[44.276366,41.70098],[44.278602,41.700115],[44.279645,41.700172],[44.283151,41.699456],[44.285031,41.699357],[44.28694,41.699256],[44.290493,41.699929],[44.292198,41.700649],[44.292869,41.700137],[44.294276,41.698656],[44.2959,41.695538],[44.29454,41.6927],[44.291765,41.692087],[44.291191,41.689998],[44.293993,41.688228],[44.296579,41.687946],[44.298753,41.689002],[44.301315,41.690954],[44.302491,41.69245],[44.307058,41.692776],[44.30964,41.69294],[44.312416,41.693553],[44.316576,41.694769],[44.320552,41.694644],[44.323953,41.69243],[44.328781,41.686798],[44.330803,41.683384]],[[44.242776,41.734819],[44.244583,41.733342],[44.246385,41.732311],[44.249374,41.731735],[44.251349,41.732939],[44.254919,41.733707],[44.258085,41.735068],[44.261249,41.736578],[44.264825,41.736899],[44.268621,41.735285],[44.271193,41.736493],[44.27097,41.738576],[44.268559,41.740795],[44.265551,41.74301],[44.259172,41.74431],[44.255604,41.743244],[44.253871,41.742654],[44.252039,41.742029],[44.251316,41.7414],[44.249282,41.739628],[44.248166,41.73899],[44.245332,41.737368],[44.242776,41.734819]]]}},{"type":"Feature","properties":{"Name_Geo":"გარდაბნის აღკვეთილი","Name_Eng":"Gardabani Managed reserve","Category":"აღკვეთილი","Area_km2":35.3,"Total_ha":3533,"isLabel":true},"geometry":{"type":"Polygon","coordinates":[[[45.027659,41.462572],[45.028429,41.462248],[45.03057,41.464798],[45.033221,41.467455],[45.035701,41.469775],[45.036653,41.47032],[45.037846,41.469642],[45.038885,41.468704],[45.039819,41.467727],[45.040234,41.466437],[45.040649,41.465147],[45.041531,41.464092],[45.042726,41.46331],[45.044232,41.462254],[45.04465,41.461627],[45.044996,41.460995],[45.045292,41.460287],[45.045786,41.459543],[45.046429,41.459059],[45.047241,41.458617],[45.04741,41.458017],[45.047622,41.45726],[45.047594,41.457039],[45.042846,41.457305],[45.039293,41.448458],[45.040887,41.448108],[45.04576,41.447038],[45.045745,41.446329],[45.044327,41.446168],[45.04321,41.445781],[45.041348,41.436307],[45.04395,41.433607],[45.044393,41.435788],[45.049077,41.434988],[45.052763,41.438544],[45.053257,41.437882],[45.053367,41.437302],[45.052981,41.436517],[45.052155,41.434945],[45.052155,41.434118],[45.052743,41.43329],[45.053398,41.432867],[45.054022,41.431842],[45.054805,41.431039],[45.055285,41.430476],[45.055999,41.429896],[45.056713,41.430019],[45.05787,41.429024],[45.059195,41.427525],[45.060034,41.426294],[45.060254,41.425228],[45.060209,41.42403],[45.059987,41.422965],[45.060472,41.4217],[45.061621,41.4212],[45.062108,41.421067],[45.062478,41.421686],[45.062463,41.422731],[45.062243,41.423962],[45.061669,41.424695],[45.061537,41.425361],[45.061581,41.425694],[45.06198,41.426326],[45.061981,41.426925],[45.062025,41.427491],[45.062335,41.42779],[45.062557,41.428123],[45.062911,41.428489],[45.06331,41.429387],[45.062912,41.430186],[45.062471,41.431185],[45.061941,41.431951],[45.062339,41.431851],[45.063066,41.431012],[45.064195,41.429986],[45.065122,41.428854],[45.06636,41.428121],[45.068129,41.427887],[45.069883,41.425264],[45.064494,41.419967],[45.065318,41.419323],[45.066293,41.418543],[45.067282,41.417526],[45.067769,41.416874],[45.067862,41.41614],[45.067512,41.415037],[45.066848,41.414065],[45.066254,41.413146],[45.065486,41.412516],[45.064961,41.412234],[45.064721,41.41168],[45.064703,41.410842],[45.065387,41.409229],[45.066035,41.407139],[45.065898,41.406675],[45.065147,41.405882],[45.065309,41.405779],[45.065127,41.404913],[45.064984,41.403912],[45.065508,41.402793],[45.066162,41.401443],[45.068084,41.399994],[45.069133,41.399302],[45.070486,41.397622],[45.071447,41.396864],[45.071971,41.396008],[45.072494,41.394922],[45.073804,41.394197],[45.074547,41.393801],[45.075508,41.392813],[45.076262,41.391903],[45.077419,41.390775],[45.078528,41.389793],[45.079705,41.389432],[45.080666,41.388783],[45.08125,41.388294],[45.08285,41.387592],[45.084189,41.387142],[45.085691,41.386588],[45.086903,41.386117],[45.087601,41.385839],[45.089364,41.385229],[45.091054,41.384923],[45.092155,41.384424],[45.093404,41.383648],[45.094285,41.383067],[45.095538,41.382367],[45.096786,41.38124],[45.098485,41.378929],[45.100761,41.375643],[45.102633,41.373351],[45.1087,41.364373],[45.112759,41.358315],[45.112632,41.358205],[45.10926,41.355142],[45.105612,41.351574],[45.101347,41.347338],[45.101106,41.347107],[45.095415,41.341874],[45.093221,41.340056],[45.092579,41.339524],[45.091965,41.339015],[45.090401,41.340728],[45.090188,41.340903],[45.08868,41.342145],[45.087155,41.343416],[45.085003,41.344421],[45.084671,41.344543],[45.083858,41.344843],[45.082703,41.345599],[45.081652,41.345649],[45.08147,41.345658],[45.081359,41.345558],[45.081289,41.345537],[45.080867,41.345481],[45.079249,41.345704],[45.078489,41.345928],[45.077602,41.346247],[45.076885,41.346979],[45.076324,41.347818],[45.075123,41.348725],[45.074479,41.349502],[45.074007,41.349891],[45.073449,41.350345],[45.072419,41.350895],[45.071303,41.351802],[45.070874,41.352353],[45.070317,41.353098],[45.069716,41.353875],[45.069287,41.354393],[45.068901,41.354976],[45.068687,41.355462],[45.068945,41.355915],[45.069203,41.356368],[45.069805,41.356917],[45.070278,41.357467],[45.070279,41.357953],[45.069721,41.358633],[45.069292,41.359248],[45.068219,41.360123],[45.067373,41.360239],[45.066844,41.360285],[45.066243,41.360739],[45.065986,41.361386],[45.066417,41.362325],[45.066418,41.363199],[45.066332,41.363684],[45.06629,41.36404],[45.065818,41.364526],[45.065603,41.365044],[45.065662,41.365404],[45.064797,41.365481],[45.06276,41.365721],[45.061443,41.365951],[45.059813,41.366123],[45.057831,41.366505],[45.056744,41.367033],[45.0562,41.367677],[45.056162,41.369024],[45.056202,41.36958],[45.05628,41.370195],[45.056319,41.370898],[45.055893,41.371952],[45.055544,41.372977],[45.055156,41.374237],[45.054691,41.375437],[45.054104,41.376012],[45.053241,41.37671],[45.052635,41.377674],[45.051708,41.378806],[45.05139,41.379938],[45.05139,41.380732],[45.05104,41.382177],[45.050433,41.383382],[45.050658,41.384248],[45.050791,41.384809],[45.051168,41.385175],[45.051243,41.3858],[45.050882,41.38636],[45.050408,41.38699],[45.05025,41.387604],[45.050137,41.388439],[45.049889,41.389222],[45.049731,41.390006],[45.049347,41.390517],[45.04894,41.391199],[45.048556,41.391676],[45.048353,41.392239],[45.048285,41.392665],[45.047879,41.393125],[45.047245,41.393687],[45.046499,41.394267],[45.045617,41.394897],[45.04478,41.395221],[45.044102,41.395307],[45.043174,41.395256],[45.04236,41.395444],[45.041885,41.395683],[45.04141,41.39604],[45.041093,41.396449],[45.041048,41.396909],[45.041501,41.397352],[45.041714,41.39773],[45.041444,41.398977],[45.041479,41.399944],[45.040972,41.400707],[45.040263,41.401343],[45.039858,41.402005],[45.040636,41.40348],[45.040907,41.404142],[45.041448,41.405032],[45.042192,41.405948],[45.043037,41.40666],[45.042768,41.407728],[45.042735,41.408848],[45.044137,41.409852],[45.047435,41.410335],[45.049453,41.411102],[45.050253,41.41421],[45.050965,41.415188],[45.051469,41.416025],[45.051814,41.417242],[45.051868,41.418358],[45.052346,41.419435],[45.052744,41.420411],[45.052718,41.421169],[45.052348,41.422146],[45.051686,41.422765],[45.050388,41.422945],[45.049061,41.423913],[45.048231,41.424825],[45.046916,41.425842],[45.045843,41.426598],[45.044598,41.427615],[45.043525,41.428527],[45.042244,41.42907],[45.04075,41.43008],[45.039958,41.431188],[45.03894,41.432409],[45.037582,41.433091],[45.037057,41.43347],[45.036865,41.43366],[45.036186,41.434171],[45.035507,41.434171],[45.034714,41.433888],[45.034072,41.433888],[45.032487,41.433832],[45.031145,41.434195],[45.028214,41.435639],[45.025959,41.436531],[45.024171,41.43763],[45.022331,41.438517],[45.021848,41.439635],[45.021759,41.440962],[45.021341,41.442313],[45.020563,41.443303],[45.018948,41.444519],[45.016675,41.445284],[45.014612,41.445847],[45.013236,41.446703],[45.012309,41.447648],[45.011153,41.449364],[45.009888,41.453172],[45.009798,41.455791],[45.010099,41.458935],[45.010297,41.46181],[45.011289,41.464939],[45.013139,41.468091],[45.013875,41.470137],[45.013046,41.471747],[45.012659,41.473783],[45.01378,41.475916],[45.015251,41.477022],[45.016666,41.477873],[45.016701,41.477893],[45.018291,41.477205],[45.019975,41.476173],[45.021169,41.475547],[45.02465,41.472538],[45.024909,41.471365],[45.026208,41.470114],[45.026519,41.469255],[45.026259,41.468043],[45.02605,41.466793],[45.02631,41.466206],[45.02631,41.465229],[45.026621,41.46437],[45.027036,41.463549],[45.027659,41.462572]]]}},{"type":"Feature","properties":{"Name_Geo":"თბილისის ეროვნული პარკი","Name_Eng":"Tbilisi National Park","Category":"ეროვნული პარკი","Area_km2":34.23,"Total_ha":0,"isLabel":true},"geometry":{"type":"Polygon","coordinates":[[[45.042554,41.851129],[45.042565,41.850817],[45.042196,41.85072],[45.041866,41.85065],[45.041647,41.850701],[45.040958,41.850921],[45.040246,41.851107],[45.040105,41.851063],[45.039813,41.85094],[45.03949,41.85075],[45.03917,41.850589],[45.038734,41.850517],[45.038539,41.850489],[45.038241,41.850525],[45.037865,41.850644],[45.037579,41.850716],[45.03743,41.850756],[45.037239,41.850754],[45.036972,41.85073],[45.036643,41.850734],[45.03622,41.85081],[45.035675,41.850915],[45.041801,41.851307],[45.042554,41.851129]],[[44.967436,41.859042],[44.971985,41.857513],[44.977597,41.856448],[44.983141,41.855396],[44.984893,41.855063],[44.988598,41.854368],[44.991613,41.854034],[44.992947,41.853886],[44.997134,41.854392],[44.997713,41.854462],[45.00064,41.854989],[45.001058,41.855044],[45.006121,41.8557],[45.006393,41.855675],[45.007645,41.855563],[45.012883,41.854227],[45.02071,41.852554],[45.030772,41.850601],[45.034403,41.850834],[45.034337,41.850803],[45.034155,41.850705],[45.034024,41.850636],[45.033915,41.850583],[45.033715,41.850479],[45.033408,41.850352],[45.032988,41.850078],[45.032535,41.849781],[45.031974,41.84954],[45.031437,41.849383],[45.03077,41.849338],[45.030009,41.849387],[45.029411,41.849454],[45.028679,41.849538],[45.028417,41.849524],[45.0281,41.849576],[45.027378,41.849941],[45.026963,41.850058],[45.026315,41.850118],[45.025816,41.850132],[45.025335,41.850185],[45.02505,41.850265],[45.024812,41.850315],[45.024335,41.850461],[45.024074,41.850551],[45.023724,41.850614],[45.023359,41.850639],[45.022879,41.850677],[45.022496,41.85074],[45.022197,41.850814],[45.021943,41.850947],[45.021744,41.85102],[45.02142,41.851129],[45.020942,41.851226],[45.02032,41.851422],[45.019853,41.851484],[45.019285,41.851485],[45.018701,41.851423],[45.018504,41.85142],[45.017865,41.851594],[45.017525,41.851656],[45.016904,41.851671],[45.015934,41.851608],[45.01446,41.851928],[45.013611,41.852147],[45.01321,41.852289],[45.013026,41.852187],[45.013357,41.852023],[45.013703,41.851831],[45.013824,41.851852],[45.01395,41.851852],[45.014147,41.851785],[45.014254,41.851684],[45.014235,41.851548],[45.014371,41.851471],[45.014389,41.851314],[45.014581,41.851276],[45.014805,41.850972],[45.014921,41.850734],[45.014856,41.850511],[45.014666,41.850266],[45.01493,41.850002],[45.015461,41.84931],[45.015723,41.84918],[45.015914,41.849214],[45.015977,41.849318],[45.015991,41.849464],[45.015991,41.849594],[45.015935,41.84994],[45.015942,41.85008],[45.015942,41.850184],[45.015998,41.850265],[45.016088,41.850307],[45.016186,41.850333],[45.01629,41.850322],[45.016381,41.850267],[45.016474,41.850161],[45.016565,41.849747],[45.016575,41.849524],[45.016645,41.849313],[45.016742,41.849263],[45.016944,41.849139],[45.01701,41.849016],[45.016871,41.84886],[45.016749,41.848741],[45.016992,41.84833],[45.017207,41.848145],[45.017291,41.848085],[45.017362,41.847908],[45.017496,41.847391],[45.017528,41.847183],[45.017576,41.847086],[45.017611,41.847011],[45.017712,41.84692],[45.017799,41.846855],[45.017903,41.846813],[45.017921,41.846587],[45.01802,41.846511],[45.018302,41.846341],[45.018472,41.846242],[45.018608,41.84614],[45.018952,41.845963],[45.019189,41.845971],[45.019343,41.846053],[45.019415,41.846145],[45.019517,41.846395],[45.019593,41.846763],[45.019681,41.846918],[45.019687,41.847089],[45.019607,41.847466],[45.019533,41.847672],[45.01908,41.848891],[45.018865,41.849192],[45.018782,41.849358],[45.018798,41.849631],[45.018909,41.849808],[45.018821,41.85023],[45.019063,41.850549],[45.019214,41.850577],[45.019397,41.850535],[45.019592,41.850438],[45.019872,41.850319],[45.020315,41.850136],[45.020519,41.850008],[45.02068,41.849969],[45.02054,41.849712],[45.020664,41.849415],[45.020805,41.849282],[45.020719,41.849136],[45.020794,41.848839],[45.021377,41.848108],[45.021554,41.847771],[45.021838,41.84744],[45.021903,41.847172],[45.022041,41.847145],[45.022111,41.847269],[45.022132,41.84748],[45.022277,41.847842],[45.022279,41.84809],[45.022343,41.848308],[45.022741,41.848906],[45.022856,41.849201],[45.022946,41.849308],[45.023037,41.849318],[45.023143,41.849459],[45.023109,41.849612],[45.022963,41.84972],[45.022815,41.849817],[45.022701,41.849938],[45.02268,41.850035],[45.022679,41.850098],[45.022785,41.850172],[45.02294,41.850171],[45.023129,41.850124],[45.023321,41.850175],[45.023519,41.850159],[45.02365,41.850083],[45.023727,41.850023],[45.023822,41.850007],[45.023966,41.849909],[45.024071,41.849783],[45.024193,41.849671],[45.024295,41.849269],[45.024221,41.849074],[45.02416,41.84904],[45.024251,41.848316],[45.024392,41.848007],[45.0245,41.847783],[45.024632,41.847767],[45.024895,41.847843],[45.025057,41.847955],[45.0253,41.848229],[45.025558,41.848613],[45.025415,41.848798],[45.025542,41.849205],[45.025715,41.849516],[45.025813,41.84959],[45.026119,41.849511],[45.026136,41.849411],[45.026155,41.849271],[45.026161,41.84911],[45.026087,41.849016],[45.026021,41.848925],[45.025903,41.848657],[45.025963,41.848431],[45.025873,41.848293],[45.025742,41.848039],[45.025597,41.847826],[45.025496,41.847647],[45.025395,41.847449],[45.025416,41.847302],[45.025484,41.847266],[45.02555,41.847096],[45.025705,41.846989],[45.025784,41.846888],[45.025992,41.846657],[45.02608,41.846466],[45.026146,41.846217],[45.026207,41.846103],[45.026242,41.846018],[45.026477,41.846032],[45.0265,41.846161],[45.026639,41.846282],[45.026822,41.846402],[45.02688,41.846472],[45.026992,41.846549],[45.027212,41.84665],[45.027869,41.847041],[45.028333,41.847188],[45.028631,41.847181],[45.028949,41.847081],[45.028901,41.847572],[45.02904,41.848008],[45.029055,41.84824],[45.029365,41.848449],[45.029594,41.848449],[45.0299,41.848397],[45.030151,41.848511],[45.030303,41.848183],[45.030582,41.847942],[45.031205,41.847814],[45.031526,41.847495],[45.031642,41.84723],[45.032127,41.847326],[45.032025,41.847705],[45.032044,41.847846],[45.031969,41.848383],[45.031745,41.849324],[45.031956,41.849421],[45.032408,41.849026],[45.032605,41.848755],[45.032703,41.848869],[45.033219,41.848979],[45.033685,41.849116],[45.03413,41.848794],[45.034795,41.848683],[45.034735,41.84856],[45.034645,41.848388],[45.034744,41.848293],[45.034901,41.848238],[45.034963,41.848229],[45.03503,41.84831],[45.035055,41.848347],[45.035081,41.848412],[45.035357,41.848319],[45.035603,41.848353],[45.03585,41.848386],[45.036088,41.84833],[45.036355,41.848388],[45.036474,41.848429],[45.036746,41.848434],[45.036907,41.848543],[45.037003,41.848767],[45.037175,41.84869],[45.037439,41.848675],[45.037515,41.848587],[45.037664,41.848584],[45.037743,41.848489],[45.037651,41.848325],[45.037777,41.848243],[45.03779,41.848129],[45.037713,41.847915],[45.037655,41.847746],[45.03769,41.847667],[45.03762,41.847434],[45.037484,41.8474],[45.037475,41.847282],[45.037372,41.847096],[45.037467,41.84697],[45.037571,41.846859],[45.037695,41.846951],[45.037718,41.847071],[45.037748,41.847216],[45.037816,41.847333],[45.037926,41.847439],[45.038079,41.847528],[45.038219,41.847531],[45.038515,41.847716],[45.038618,41.847748],[45.038669,41.847911],[45.038684,41.847969],[45.038699,41.848362],[45.03869,41.848872],[45.038751,41.849054],[45.039274,41.849058],[45.039456,41.849128],[45.039438,41.849286],[45.039484,41.849374],[45.039646,41.849455],[45.040142,41.849553],[45.040384,41.849525],[45.040469,41.849577],[45.040675,41.849693],[45.04069,41.849744],[45.040898,41.849896],[45.040992,41.849959],[45.041086,41.850038],[45.041168,41.850056],[45.041283,41.850013],[45.041377,41.850028],[45.04147,41.850039],[45.041569,41.850065],[45.041707,41.850167],[45.041798,41.85018],[45.041878,41.850175],[45.042007,41.850096],[45.042152,41.850061],[45.042231,41.849958],[45.042255,41.849856],[45.042264,41.849816],[45.042265,41.84974],[45.042267,41.849658],[45.042235,41.849568],[45.042203,41.84948],[45.04215,41.849295],[45.042175,41.849211],[45.042354,41.849316],[45.042506,41.849342],[45.042619,41.849393],[45.042791,41.849499],[45.042959,41.849647],[45.043124,41.84974],[45.043154,41.849757],[45.043286,41.849852],[45.043453,41.849812],[45.043516,41.849745],[45.043588,41.849699],[45.043604,41.849647],[45.043661,41.849607],[45.04365,41.849494],[45.043618,41.849397],[45.043583,41.849323],[45.043673,41.849249],[45.043673,41.849112],[45.043613,41.849033],[45.043601,41.848871],[45.043467,41.848687],[45.043405,41.84854],[45.043333,41.848414],[45.04325,41.848349],[45.043241,41.848282],[45.043209,41.848116],[45.043091,41.847922],[45.042934,41.847868],[45.042897,41.847739],[45.042796,41.847672],[45.042646,41.847606],[45.042669,41.847525],[45.042714,41.847505],[45.042828,41.847545],[45.042922,41.847538],[45.043022,41.847508],[45.043256,41.847467],[45.043363,41.847573],[45.043457,41.847579],[45.043571,41.847583],[45.043706,41.847585],[45.043955,41.847785],[45.044226,41.848071],[45.044328,41.848067],[45.04459,41.848098],[45.04476,41.84814],[45.044882,41.84814],[45.045001,41.848141],[45.045092,41.848153],[45.045173,41.848143],[45.045259,41.848106],[45.04542,41.848133],[45.045503,41.848224],[45.045634,41.848289],[45.045837,41.848338],[45.045918,41.848427],[45.046102,41.848522],[45.046289,41.848479],[45.046448,41.848527],[45.046579,41.848541],[45.046819,41.848618],[45.046992,41.848554],[45.047183,41.848416],[45.047315,41.84843],[45.047673,41.848321],[45.047755,41.848284],[45.048001,41.848285],[45.048384,41.84871],[45.048553,41.848775],[45.048721,41.848835],[45.049136,41.848884],[45.049388,41.848702],[45.049392,41.848244],[45.049699,41.84829],[45.050015,41.848205],[45.050217,41.848139],[45.05042,41.848092],[45.050492,41.848062],[45.050541,41.847994],[45.050594,41.847924],[45.050666,41.847834],[45.050721,41.847765],[45.050733,41.847639],[45.050647,41.847504],[45.050914,41.847391],[45.051377,41.847446],[45.051676,41.847363],[45.051828,41.847439],[45.05218,41.847439],[45.052369,41.847565],[45.052635,41.847801],[45.05267,41.847833],[45.052828,41.847978],[45.053115,41.84795],[45.05343,41.847858],[45.053447,41.847833],[45.053516,41.847724],[45.053348,41.847295],[45.053106,41.847123],[45.052909,41.846884],[45.052552,41.846808],[45.052282,41.846685],[45.052134,41.846584],[45.051752,41.846644],[45.051577,41.84617],[45.051531,41.84592],[45.051609,41.845809],[45.051655,41.845785],[45.051501,41.844796],[45.051141,41.844024],[45.050779,41.843664],[45.050379,41.842865],[45.05018,41.842234],[45.049717,41.841384],[45.049257,41.840828],[45.048846,41.8404],[45.047907,41.839475],[45.047608,41.839166],[45.047481,41.838882],[45.047411,41.838049],[45.047443,41.837123],[45.047392,41.836766],[45.047083,41.836186],[45.046811,41.83584],[45.046467,41.835127],[45.045955,41.834182],[45.045725,41.83389],[45.04572,41.833543],[45.045623,41.833358],[45.045569,41.833106],[45.045451,41.833027],[45.045393,41.832977],[45.045366,41.832971],[45.044601,41.832123],[45.043796,41.832001],[45.042819,41.831832],[45.041704,41.831508],[45.040833,41.831192],[45.040863,41.830788],[45.040574,41.830158],[45.040725,41.829742],[45.040762,41.829446],[45.040825,41.829307],[45.041128,41.828616],[45.041306,41.828196],[45.04122,41.827733],[45.041011,41.827333],[45.041453,41.827021],[45.04215,41.82665],[45.042617,41.826471],[45.042949,41.825919],[45.043338,41.825433],[45.043723,41.825179],[45.044237,41.824698],[45.044412,41.824477],[45.044558,41.824194],[45.044602,41.824162],[45.044862,41.823869],[45.045016,41.823535],[45.045284,41.822713],[45.045399,41.822462],[45.045552,41.822128],[45.045715,41.821836],[45.04573,41.821794],[45.045731,41.821793],[45.045274,41.821165],[45.044793,41.820577],[45.044769,41.819902],[45.044485,41.819076],[45.042448,41.816975],[45.041752,41.817155],[45.041279,41.817277],[45.040428,41.817395],[45.040089,41.817342],[45.039903,41.817213],[45.039659,41.817063],[45.039539,41.817095],[45.039152,41.817238],[45.038388,41.81741],[45.037834,41.817396],[45.037513,41.817385],[45.03694,41.817411],[45.036572,41.817443],[45.0364,41.817482],[45.035798,41.817343],[45.035559,41.817343],[45.035072,41.817476],[45.034398,41.817537],[45.033872,41.817508],[45.033452,41.817612],[45.033156,41.817701],[45.032845,41.817684],[45.032663,41.817684],[45.032315,41.817755],[45.031928,41.817923],[45.031493,41.818102],[45.03133,41.818213],[45.030872,41.818417],[45.030695,41.818531],[45.030198,41.818725],[45.029931,41.818818],[45.029673,41.818839],[45.029376,41.818818],[45.02898,41.818775],[45.028927,41.818786],[45.02887,41.818832],[45.028726,41.819007],[45.028574,41.819104],[45.028263,41.819229],[45.028005,41.819483],[45.027805,41.819855],[45.027456,41.820069],[45.027351,41.819726],[45.027159,41.819769],[45.027021,41.82028],[45.02671,41.820355],[45.026482,41.82059],[45.026085,41.82033],[45.025572,41.820135],[45.024926,41.819831],[45.024648,41.819691],[45.024446,41.819516],[45.024196,41.819406],[45.023939,41.819357],[45.023579,41.819428],[45.022846,41.819571],[45.022216,41.819638],[45.021925,41.819594],[45.021197,41.819451],[45.020691,41.819322],[45.020503,41.819227],[45.020329,41.819021],[45.02005,41.818706],[45.019897,41.818621],[45.019515,41.818516],[45.019189,41.818397],[45.018786,41.818172],[45.018459,41.817942],[45.01816,41.817827],[45.017328,41.817724],[45.016268,41.817552],[45.015623,41.817483],[45.014765,41.817642],[45.014108,41.817709],[45.01379,41.81773],[45.013512,41.817676],[45.013297,41.817536],[45.012886,41.817281],[45.012768,41.81715],[45.012753,41.81697],[45.01271,41.816789],[45.012334,41.816488],[45.011882,41.816203],[45.011777,41.815958],[45.011774,41.815606],[45.011917,41.815199],[45.012472,41.814262],[45.012519,41.814112],[45.012483,41.813886],[45.012752,41.813734],[45.012896,41.813467],[45.0129,41.81308],[45.012809,41.81287],[45.012759,41.812739],[45.012955,41.812497],[45.012633,41.812488],[45.012398,41.812559],[45.012028,41.812559],[45.011818,41.8126],[45.011221,41.812275],[45.011058,41.812047],[45.010885,41.812004],[45.010264,41.812185],[45.009936,41.812336],[45.009764,41.812378],[45.00946,41.812381],[45.008558,41.812424],[45.008012,41.812476],[45.007805,41.812533],[45.007502,41.81269],[45.007247,41.812895],[45.006838,41.813215],[45.006624,41.813362],[45.006139,41.813629],[45.005739,41.813906],[45.00575,41.81407],[45.005849,41.814397],[45.005884,41.814656],[45.00574,41.814921],[45.005457,41.815123],[45.00524,41.815324],[45.00503,41.815679],[45.004829,41.815857],[45.004743,41.815881],[45.004218,41.815936],[45.003775,41.816036],[45.003463,41.816153],[45.003039,41.816437],[45.002765,41.816546],[45.002488,41.816682],[45.002224,41.81688],[45.0018,41.816996],[45.001796,41.817446],[45.001788,41.817883],[45.001651,41.81808],[45.001374,41.818525],[45.001238,41.818914],[45.001226,41.819367],[45.00126,41.81964],[45.001512,41.819893],[45.001684,41.820126],[45.001914,41.820398],[45.002035,41.820641],[45.002124,41.820882],[45.002146,41.821039],[45.00213,41.821385],[45.002172,41.821759],[45.002341,41.822402],[45.002353,41.82255],[45.002325,41.82275],[45.002089,41.823046],[45.001732,41.823415],[45.001496,41.823725],[45.001337,41.823875],[45.001216,41.823992],[45.0011,41.824484],[45.000962,41.825039],[45.00096,41.825243],[45.001036,41.825391],[45.001069,41.825655],[45.001112,41.825982],[45.00125,41.826434],[45.001397,41.826761],[45.00138,41.826902],[45.001268,41.827119],[45.001066,41.827552],[45.001046,41.82768],[45.001064,41.82779],[45.001128,41.828032],[45.00118,41.82818],[45.001682,41.828859],[45.001992,41.829255],[45.002045,41.829411],[45.002035,41.829523],[45.001977,41.829692],[45.001525,41.830315],[45.001401,41.830507],[45.001351,41.830699],[45.001287,41.831031],[45.001017,41.831543],[45.001,41.831674],[45.001042,41.831755],[45.001018,41.831796],[44.993828,41.831063],[44.993748,41.831305],[44.993468,41.831491],[44.993258,41.831558],[44.993162,41.831677],[44.993124,41.831849],[44.99299,41.832082],[44.992862,41.832497],[44.992352,41.832959],[44.991989,41.833102],[44.991734,41.833302],[44.991721,41.83345],[44.991422,41.83366],[44.990836,41.834017],[44.990593,41.83406],[44.990358,41.833941],[44.989924,41.833826],[44.989433,41.833926],[44.989217,41.834127],[44.9887,41.834565],[44.988369,41.834646],[44.98807,41.834751],[44.987681,41.834717],[44.987273,41.834765],[44.986597,41.834817],[44.985864,41.835046],[44.985297,41.835179],[44.985112,41.835284],[44.984214,41.835346],[44.983793,41.835239],[44.983411,41.835401],[44.983385,41.83552],[44.983264,41.835506],[44.983041,41.835568],[44.982907,41.835529],[44.982506,41.835568],[44.98227,41.835448],[44.982008,41.835515],[44.981741,41.835443],[44.981435,41.83552],[44.981174,41.835644],[44.980794,41.835721],[44.980206,41.835399],[44.980116,41.835456],[44.979714,41.835456],[44.97948,41.835345],[44.979012,41.834913],[44.978491,41.834798],[44.978214,41.834437],[44.978104,41.834359],[44.978018,41.834033],[44.977917,41.833951],[44.977511,41.83369],[44.976962,41.833629],[44.976522,41.833547],[44.976469,41.8334],[44.976097,41.833207],[44.975695,41.833078],[44.974997,41.833089],[44.974758,41.833031],[44.973749,41.832733],[44.973357,41.832655],[44.973182,41.832584],[44.973042,41.832454],[44.972968,41.832366],[44.972778,41.832287],[44.972453,41.832302],[44.971885,41.832668],[44.971438,41.83285],[44.971046,41.832904],[44.970434,41.832912],[44.969867,41.832834],[44.969184,41.832626],[44.968697,41.83245],[44.968427,41.832366],[44.968252,41.832367],[44.968092,41.832573],[44.967838,41.832732],[44.967631,41.832715],[44.967162,41.832586],[44.966741,41.832402],[44.966269,41.832299],[44.965919,41.832349],[44.965827,41.832311],[44.965773,41.832075],[44.965809,41.831913],[44.965716,41.831848],[44.965445,41.831758],[44.965372,41.831579],[44.965168,41.831374],[44.965082,41.831324],[44.965003,41.831207],[44.964796,41.831179],[44.964636,41.831057],[44.964538,41.830842],[44.964178,41.830814],[44.964104,41.830702],[44.964143,41.830604],[44.96413,41.830509],[44.963843,41.83033],[44.963515,41.830232],[44.963487,41.830156],[44.963544,41.829941],[44.963646,41.829717],[44.963669,41.829567],[44.963586,41.829405],[44.963449,41.829224],[44.963306,41.829164],[44.963073,41.829126],[44.962955,41.829331],[44.96292,41.829467],[44.962834,41.829627],[44.962735,41.829753],[44.96263,41.829982],[44.962378,41.83007],[44.962129,41.830132],[44.961887,41.83012],[44.961438,41.830127],[44.961138,41.830153],[44.960928,41.830186],[44.960724,41.8303],[44.960182,41.830388],[44.960093,41.830464],[44.959701,41.8305],[44.959351,41.830498],[44.959271,41.830509],[44.958777,41.830724],[44.958356,41.830907],[44.958206,41.830864],[44.957939,41.83085],[44.957407,41.830909],[44.957196,41.830859],[44.956894,41.830933],[44.956565,41.830959],[44.956228,41.830887],[44.955791,41.831028],[44.955469,41.831144],[44.954797,41.831149],[44.954485,41.831211],[44.954239,41.831346],[44.954156,41.831475],[44.953787,41.831477],[44.95313,41.831677],[44.95312,41.831863],[44.953028,41.832142],[44.952926,41.832313],[44.952731,41.832545],[44.952693,41.832742],[44.952718,41.832821],[44.952772,41.833324],[44.952762,41.833505],[44.952663,41.8336],[44.952275,41.833714],[44.951876,41.834119],[44.951596,41.834019],[44.951079,41.833921],[44.950818,41.833568],[44.950411,41.833323],[44.950044,41.833282],[44.949592,41.833284],[44.949276,41.833349],[44.94891,41.833215],[44.948671,41.833007],[44.94862,41.832698],[44.94849,41.832545],[44.948248,41.832504],[44.947681,41.832473],[44.947075,41.832533],[44.946622,41.832816],[44.946281,41.833059],[44.94587,41.832875],[44.945402,41.832679],[44.945205,41.832606],[44.944889,41.832307],[44.944832,41.832091],[44.944979,41.831917],[44.945438,41.831495],[44.94598,41.831388],[44.946136,41.831317],[44.946149,41.831066],[44.945952,41.83083],[44.94578,41.830633],[44.945735,41.83064],[44.945675,41.830509],[44.945445,41.830775],[44.945225,41.830866],[44.944938,41.83089],[44.9449,41.830894],[44.944629,41.830889],[44.9441,41.831116],[44.944024,41.831266],[44.944058,41.831633],[44.944001,41.831704],[44.94366,41.831966],[44.943529,41.832064],[44.943309,41.832011],[44.943064,41.832011],[44.94264,41.832178],[44.94221,41.832285],[44.941824,41.832413],[44.94161,41.832425],[44.94126,41.832544],[44.941027,41.832758],[44.940695,41.832961],[44.94038,41.83307],[44.940179,41.833175],[44.939943,41.833346],[44.939806,41.833573],[44.939838,41.833735],[44.939583,41.833904],[44.939439,41.833942],[44.939194,41.833992],[44.938834,41.834006],[44.938662,41.833949],[44.938512,41.833956],[44.938368,41.833937],[44.938075,41.833901],[44.937575,41.833786],[44.937375,41.833672],[44.937037,41.83364],[44.936737,41.83359],[44.936364,41.833614],[44.936033,41.833664],[44.936014,41.833656],[44.935791,41.833399],[44.935731,41.833335],[44.93559,41.833253],[44.934989,41.832953],[44.934896,41.832827],[44.934724,41.832612],[44.934798,41.832514],[44.934757,41.832364],[44.934827,41.832274],[44.934913,41.832207],[44.934929,41.832016],[44.934935,41.83194],[44.934983,41.831907],[44.934964,41.831842],[44.935006,41.831769],[44.934987,41.831666],[44.935015,41.831618],[44.93506,41.831459],[44.934955,41.83133],[44.934634,41.831001],[44.934583,41.830827],[44.934484,41.830703],[44.934341,41.830636],[44.934108,41.830574],[44.934013,41.830738],[44.933847,41.830879],[44.933544,41.830879],[44.933283,41.831065],[44.932887,41.831233],[44.932894,41.831095],[44.932802,41.830652],[44.932685,41.830655],[44.932367,41.830101],[44.931677,41.829728],[44.930745,41.829713],[44.929255,41.830065],[44.927798,41.83051],[44.926911,41.830754],[44.92559,41.831044],[44.925525,41.831058],[44.925227,41.831122],[44.923226,41.831752],[44.92211,41.831924],[44.921368,41.831984],[44.920938,41.831921],[44.92041,41.831411],[44.919735,41.830819],[44.918487,41.829846],[44.918392,41.829757],[44.917882,41.829768],[44.917037,41.830083],[44.916615,41.830125],[44.916448,41.830077],[44.915858,41.830321],[44.915005,41.8306],[44.914479,41.83085],[44.914304,41.831142],[44.914017,41.831302],[44.913578,41.831564],[44.913204,41.831641],[44.912813,41.831915],[44.912207,41.832457],[44.912047,41.832713],[44.911712,41.832862],[44.911632,41.833016],[44.911409,41.833106],[44.91125,41.833344],[44.910923,41.833659],[44.910723,41.83388],[44.910062,41.834034],[44.909695,41.834415],[44.909511,41.83457],[44.909073,41.83473],[44.908802,41.834903],[44.908654,41.834793],[44.908252,41.834907],[44.908023,41.834854],[44.907685,41.834897],[44.907277,41.834678],[44.907169,41.834639],[44.907246,41.834277],[44.906928,41.834134],[44.906717,41.834086],[44.906628,41.834081],[44.906596,41.83401],[44.906533,41.833914],[44.906418,41.833876],[44.906304,41.833838],[44.906093,41.833747],[44.90552,41.833589],[44.905265,41.833627],[44.905042,41.833551],[44.904775,41.833441],[44.904999,41.832929],[44.90529,41.832548],[44.905358,41.832143],[44.905267,41.832033],[44.904753,41.831845],[44.904343,41.832086],[44.904155,41.832205],[44.904028,41.832258],[44.903996,41.832279],[44.903821,41.832097],[44.903626,41.832228],[44.903605,41.832359],[44.903633,41.832475],[44.903589,41.832609],[44.903585,41.832687],[44.903537,41.832755],[44.903218,41.832871],[44.902724,41.833002],[44.902369,41.833162],[44.901955,41.833454],[44.901807,41.833504],[44.901688,41.833653],[44.901445,41.833689],[44.900859,41.833569],[44.900608,41.833536],[44.900413,41.833512],[44.900262,41.833628],[44.900174,41.833414],[44.899916,41.833169],[44.899741,41.833094],[44.899395,41.832772],[44.899232,41.832534],[44.899145,41.832141],[44.89909,41.831792],[44.898831,41.831777],[44.898615,41.831851],[44.898496,41.831884],[44.898332,41.832009],[44.898392,41.832182],[44.898475,41.832286],[44.898431,41.832405],[44.898551,41.83251],[44.898562,41.832647],[44.898527,41.832682],[44.898399,41.832664],[44.89822,41.832727],[44.897909,41.832694],[44.897793,41.832848],[44.897817,41.832971],[44.897729,41.833119],[44.897578,41.833298],[44.897402,41.83342],[44.897055,41.833512],[44.8968,41.833568],[44.896566,41.833449],[44.896227,41.833526],[44.896059,41.833618],[44.89598,41.833559],[44.896036,41.833463],[44.896108,41.83316],[44.896228,41.832916],[44.89681,41.832615],[44.897025,41.832404],[44.897058,41.832035],[44.896971,41.831546],[44.897035,41.8314],[44.897234,41.831207],[44.897406,41.830992],[44.897498,41.830688],[44.897495,41.830403],[44.8973,41.830149],[44.89726,41.829967],[44.897404,41.829676],[44.897552,41.829318],[44.897591,41.828983],[44.897522,41.828855],[44.896834,41.828601],[44.89634,41.82828],[44.896152,41.828139],[44.896088,41.828028],[44.896035,41.827811],[44.896069,41.827427],[44.896006,41.827111],[44.895947,41.827029],[44.895571,41.826664],[44.894893,41.826073],[44.894063,41.825717],[44.893913,41.825782],[44.89352,41.826001],[44.893275,41.826186],[44.893181,41.826104],[44.893097,41.825939],[44.892228,41.826898],[44.891413,41.827796],[44.890297,41.828734],[44.88944,41.829289],[44.888368,41.829658],[44.887678,41.829896],[44.886967,41.830036],[44.885914,41.830478],[44.885006,41.830858],[44.883775,41.831375],[44.882387,41.831782],[44.88014,41.832441],[44.878165,41.833174],[44.876813,41.833535],[44.875427,41.833905],[44.874719,41.833995],[44.874132,41.83407],[44.873493,41.834151],[44.872421,41.834288],[44.871117,41.834454],[44.869472,41.834664],[44.868905,41.834809],[44.868471,41.835011],[44.868197,41.83535],[44.867931,41.835681],[44.867922,41.83581],[44.867937,41.835814],[44.868472,41.83618],[44.868845,41.836476],[44.869198,41.83667],[44.869704,41.83678],[44.869927,41.836794],[44.869981,41.836914],[44.869889,41.837076],[44.869704,41.837092],[44.87012,41.837157],[44.870956,41.837288],[44.872388,41.837511],[44.873156,41.837737],[44.874601,41.838162],[44.875893,41.838388],[44.876769,41.839057],[44.877741,41.8398],[44.879031,41.840306],[44.880865,41.841027],[44.882268,41.841203],[44.883777,41.841393],[44.886009,41.841371],[44.887527,41.841126],[44.888746,41.841101],[44.890318,41.84107],[44.891434,41.841047],[44.891569,41.841009],[44.892495,41.840909],[44.893337,41.84072],[44.894689,41.840415],[44.895728,41.839852],[44.896917,41.838634],[44.898404,41.837762],[44.900764,41.836377],[44.902071,41.835838],[44.902301,41.835873],[44.901825,41.836225],[44.902528,41.835908],[44.902997,41.835979],[44.903858,41.836109],[44.904505,41.836827],[44.905227,41.837627],[44.905477,41.838309],[44.906032,41.838909],[44.90608,41.839533],[44.906135,41.840261],[44.906216,41.84133],[44.90673,41.84179],[44.907861,41.842802],[44.909432,41.843203],[44.910197,41.843183],[44.912772,41.843756],[44.916047,41.844486],[44.919367,41.844848],[44.922812,41.845223],[44.926074,41.846023],[44.928352,41.846581],[44.929628,41.84726],[44.931551,41.848283],[44.935508,41.850388],[44.93887,41.852175],[44.942726,41.854225],[44.945495,41.855273],[44.946469,41.855283],[44.946562,41.855275],[44.946895,41.855413],[44.947406,41.855674],[44.948016,41.855915],[44.948401,41.856036],[44.948539,41.856005],[44.948924,41.856134],[44.949319,41.856312],[44.949694,41.856438],[44.950146,41.85645],[44.950382,41.85653],[44.950562,41.856509],[44.951018,41.856268],[44.951391,41.856259],[44.95161,41.856314],[44.951638,41.85642],[44.951357,41.856559],[44.950908,41.856938],[44.950966,41.857199],[44.951041,41.857398],[44.950843,41.857931],[44.950473,41.857901],[44.950167,41.857708],[44.94969,41.857385],[44.948916,41.856996],[44.948829,41.856965],[44.950103,41.857698],[44.952283,41.858953],[44.953939,41.860653],[44.955189,41.861588],[44.956027,41.862215],[44.957,41.862551],[44.957635,41.862337],[44.959199,41.861812],[44.963458,41.86038],[44.967436,41.859042]],[[44.970593,41.846253],[44.970703,41.846226],[44.970911,41.846244],[44.971107,41.846326],[44.971327,41.846812],[44.971547,41.847123],[44.971718,41.847397],[44.971914,41.847645],[44.972195,41.847837],[44.97244,41.848011],[44.972648,41.848249],[44.972954,41.848441],[44.973162,41.84856],[44.973431,41.848697],[44.973566,41.848762],[44.973737,41.848817],[44.973811,41.848862],[44.973921,41.84899],[44.973945,41.849192],[44.974006,41.849366],[44.974117,41.84954],[44.974214,41.849741],[44.974337,41.849887],[44.974545,41.850052],[44.974765,41.85018],[44.975096,41.850272],[44.975402,41.850437],[44.975548,41.850519],[44.975781,41.850638],[44.976038,41.850739],[44.976222,41.850812],[44.976515,41.850904],[44.976736,41.850968],[44.976882,41.851041],[44.976968,41.851087],[44.977005,41.851206],[44.976772,41.851481],[44.97654,41.851755],[44.976209,41.851984],[44.975915,41.852185],[44.975646,41.852194],[44.975315,41.852212],[44.974642,41.852405],[44.974213,41.852542],[44.97376,41.852679],[44.972928,41.852889],[44.972254,41.852971],[44.972022,41.852898],[44.971948,41.852807],[44.971851,41.852505],[44.971851,41.852221],[44.971851,41.852111],[44.971826,41.852019],[44.971569,41.851818],[44.971178,41.85158],[44.970798,41.851388],[44.970554,41.851314],[44.970468,41.851159],[44.970517,41.851021],[44.97075,41.850793],[44.971019,41.850692],[44.97119,41.850573],[44.97135,41.85029],[44.971362,41.850024],[44.971326,41.849649],[44.971277,41.849393],[44.971167,41.849063],[44.970995,41.84877],[44.970922,41.848486],[44.970812,41.848102],[44.970702,41.847772],[44.970543,41.847452],[44.970298,41.847315],[44.970225,41.847122],[44.970176,41.846894],[44.970188,41.846729],[44.970244,41.846572],[44.970286,41.846454],[44.97036,41.846335],[44.970593,41.846253]],[[44.976969,41.847865],[44.977202,41.847545],[44.977569,41.84728],[44.977961,41.847069],[44.978341,41.84685],[44.978965,41.846612],[44.979247,41.84631],[44.979455,41.845669],[44.979688,41.845504],[44.979834,41.845816],[44.980201,41.846365],[44.980752,41.847097],[44.980948,41.847262],[44.980813,41.847344],[44.980678,41.847436],[44.980458,41.8475],[44.980274,41.847546],[44.980225,41.847555],[44.979944,41.847665],[44.979724,41.847783],[44.97954,41.847866],[44.979356,41.847966],[44.979234,41.848104],[44.97916,41.848241],[44.979111,41.848424],[44.978928,41.848781],[44.978842,41.849046],[44.978695,41.849284],[44.978634,41.849477],[44.978242,41.849568],[44.978046,41.849568],[44.97774,41.849531],[44.977507,41.84933],[44.977238,41.84911],[44.976945,41.848616],[44.97692,41.848204],[44.976969,41.847865]],[[44.979289,41.845537],[44.979284,41.845596],[44.979135,41.845586],[44.978188,41.844831],[44.977416,41.844165],[44.977433,41.844155],[44.977387,41.844104],[44.97724,41.843957],[44.976489,41.843108],[44.976688,41.842999],[44.977042,41.843346],[44.977336,41.843594],[44.977412,41.843399],[44.977522,41.843243],[44.977539,41.843236],[44.977505,41.843021],[44.977561,41.842854],[44.977533,41.842708],[44.977477,41.842521],[44.977338,41.842355],[44.977255,41.842209],[44.977088,41.842001],[44.977032,41.841959],[44.976726,41.841876],[44.976643,41.841855],[44.976504,41.841813],[44.976253,41.84173],[44.976114,41.841709],[44.975947,41.841626],[44.97578,41.841439],[44.975669,41.841231],[44.975641,41.841147],[44.975558,41.841064],[44.975307,41.84096],[44.975113,41.840856],[44.974751,41.840752],[44.974612,41.840668],[44.974417,41.840544],[44.974222,41.840439],[44.974111,41.840294],[44.974055,41.840127],[44.974028,41.840044],[44.974028,41.839919],[44.973944,41.83969],[44.97364,41.839386],[44.973346,41.839131],[44.973307,41.838911],[44.97354,41.838579],[44.973912,41.838071],[44.974028,41.837874],[44.973889,41.837724],[44.973509,41.837781],[44.973184,41.837834],[44.97289,41.837654],[44.972944,41.837469],[44.973014,41.837318],[44.972936,41.837121],[44.972944,41.836943],[44.973333,41.836798],[44.973584,41.836673],[44.973946,41.83659],[44.974224,41.83659],[44.974474,41.836631],[44.974752,41.836652],[44.974975,41.836527],[44.975253,41.836403],[44.975393,41.836299],[44.97556,41.836236],[44.975699,41.836215],[44.975894,41.836153],[44.975949,41.836236],[44.976005,41.83632],[44.976033,41.836424],[44.975977,41.83659],[44.97606,41.836632],[44.976172,41.836694],[44.976366,41.836694],[44.976645,41.836673],[44.976812,41.836653],[44.976923,41.836673],[44.977118,41.836798],[44.977257,41.836944],[44.977285,41.837007],[44.977368,41.837111],[44.977451,41.837173],[44.977507,41.837277],[44.977563,41.837381],[44.977618,41.837423],[44.977785,41.837464],[44.97798,41.837444],[44.978425,41.837298],[44.978759,41.837257],[44.978954,41.837277],[44.979121,41.83734],[44.979149,41.837506],[44.979121,41.83759],[44.978843,41.837714],[44.978592,41.837818],[44.97837,41.837818],[44.978091,41.837839],[44.978008,41.837881],[44.978036,41.837964],[44.978091,41.838089],[44.978091,41.838255],[44.978286,41.838276],[44.978397,41.838339],[44.978536,41.838401],[44.978759,41.838463],[44.978982,41.838547],[44.979176,41.838713],[44.979148,41.838921],[44.979093,41.839046],[44.978981,41.839234],[44.97887,41.839358],[44.97887,41.839566],[44.978925,41.839754],[44.979009,41.840003],[44.979148,41.840316],[44.979203,41.840503],[44.979343,41.840773],[44.979537,41.841231],[44.979899,41.841731],[44.980038,41.841918],[44.980177,41.842105],[44.980288,41.842355],[44.980288,41.842522],[44.980121,41.842626],[44.979954,41.842584],[44.979704,41.842646],[44.979481,41.842709],[44.979425,41.842834],[44.97937,41.842979],[44.979286,41.843125],[44.979258,41.843312],[44.979203,41.843354],[44.979119,41.843416],[44.979111,41.843416],[44.979027,41.843472],[44.978917,41.843656],[44.978903,41.843736],[44.978921,41.843792],[44.978943,41.84392],[44.978951,41.844087],[44.978969,41.844221],[44.978982,41.844362],[44.978991,41.84453],[44.979083,41.844703],[44.979144,41.844841],[44.979184,41.845045],[44.979201,41.845166],[44.979232,41.845277],[44.979271,41.845373],[44.979289,41.845537]],[[44.976836,41.845541],[44.97697,41.84565],[44.977068,41.845815],[44.977178,41.846035],[44.977264,41.846309],[44.977459,41.846447],[44.977765,41.846566],[44.978071,41.846731],[44.977863,41.846776],[44.977643,41.846868],[44.977471,41.846996],[44.977325,41.847161],[44.977067,41.847298],[44.976884,41.847554],[44.9767,41.847655],[44.976468,41.847655],[44.976186,41.847646],[44.976064,41.847545],[44.975917,41.847389],[44.975697,41.847087],[44.975366,41.846611],[44.974987,41.846034],[44.97495,41.845961],[44.974926,41.845796],[44.974914,41.84565],[44.974804,41.845449],[44.974669,41.845284],[44.97462,41.845165],[44.974547,41.845046],[44.97451,41.844899],[44.97451,41.844771],[44.974559,41.844524],[44.974645,41.844369],[44.974706,41.844277],[44.974939,41.844176],[44.97522,41.844158],[44.975404,41.844241],[44.975587,41.84436],[44.975685,41.844442],[44.975771,41.844515],[44.975869,41.844662],[44.975942,41.844744],[44.976101,41.844909],[44.976273,41.845129],[44.976481,41.84533],[44.976676,41.845476],[44.976836,41.845541]],[[44.876431,41.833683],[44.876798,41.833542],[44.876991,41.833662],[44.877143,41.83417],[44.87671,41.834186],[44.876374,41.834146],[44.876019,41.834291],[44.875547,41.834439],[44.875364,41.834421],[44.875175,41.834467],[44.875004,41.834459],[44.874994,41.834356],[44.875598,41.834258],[44.875576,41.83421],[44.87569,41.834105],[44.875928,41.833982],[44.876176,41.833721],[44.876431,41.833683]],[[45.022317,41.820395],[45.022598,41.820327],[45.022632,41.820458],[45.022518,41.820538],[45.022338,41.820577],[45.022323,41.820503],[45.022317,41.820395]],[[45.031241,41.819103],[45.031364,41.818888],[45.03143,41.818897],[45.03149,41.818871],[45.031688,41.81894],[45.031708,41.818993],[45.031657,41.819051],[45.031476,41.819062],[45.031319,41.819141],[45.031241,41.819103]]]}},{"type":"Feature","properties":{"Name_Geo":"ქცია-ტაბაწყურის აღკვეთილი","Name_Eng":"Ktsia-Tabatskuri Managed Reserve","Category":"აღკვეთილი","Area_km2":11.27,"Total_ha":21966,"isLabel":true},"geometry":{"type":"Polygon","coordinates":[[[43.727075,41.705777],[43.7271,41.705723],[43.727228,41.70563],[43.727252,41.705555],[43.727221,41.70534],[43.727272,41.705092],[43.727359,41.70499],[43.727532,41.704976],[43.727744,41.704999],[43.728008,41.705062],[43.728075,41.705014],[43.728526,41.704653],[43.728626,41.704482],[43.728752,41.704344],[43.728921,41.7042],[43.729057,41.704098],[43.729134,41.703977],[43.729199,41.703917],[43.729273,41.703889],[43.729316,41.703873],[43.729398,41.703821],[43.729575,41.703816],[43.729948,41.703518],[43.732764,41.702772],[43.734949,41.702487],[43.737656,41.701973],[43.739322,41.701681],[43.741294,41.701627],[43.74285,41.701645],[43.74456,41.701253],[43.746927,41.700057],[43.749332,41.699073],[43.751319,41.698239],[43.75283,41.697093],[43.753039,41.695928],[43.748506,41.691947],[43.74258,41.686044],[43.738064,41.681228],[43.735213,41.68072],[43.730091,41.68257],[43.728817,41.682675],[43.729035,41.679699],[43.727713,41.674203],[43.723984,41.669872],[43.723194,41.66685],[43.723347,41.665939],[43.723472,41.664547],[43.723298,41.663445],[43.72272,41.662998],[43.721945,41.662623],[43.721564,41.662105],[43.721189,41.661294],[43.721212,41.660121],[43.721037,41.659092],[43.721063,41.657772],[43.721178,41.656893],[43.723912,41.652156],[43.724051,41.650104],[43.723703,41.6479],[43.723314,41.642834],[43.723388,41.639094],[43.723271,41.635132],[43.723518,41.632494],[43.72258,41.630503],[43.719646,41.62563],[43.717138,41.623915],[43.714879,41.622936],[43.71297,41.622108],[43.711959,41.621618],[43.711421,41.621357],[43.709877,41.620386],[43.709314,41.619206],[43.709347,41.61752],[43.708894,41.61084],[43.708199,41.606504],[43.706942,41.600916],[43.704513,41.595314],[43.702844,41.592647],[43.701494,41.589923],[43.700948,41.590032],[43.701299,41.591046],[43.702219,41.593227],[43.704224,41.599039],[43.705865,41.603761],[43.706935,41.608115],[43.707075,41.610722],[43.707118,41.613399],[43.70622,41.61641],[43.704782,41.620464],[43.703997,41.624485],[43.703402,41.627083],[43.703428,41.628508],[43.703611,41.630179],[43.704064,41.631975],[43.704973,41.635323],[43.705986,41.638957],[43.707083,41.643773],[43.708165,41.649402],[43.708773,41.651525],[43.709496,41.653406],[43.711221,41.656682],[43.713363,41.660898],[43.715357,41.66434],[43.716961,41.666622],[43.717456,41.669135],[43.717823,41.671378],[43.718642,41.674205],[43.719817,41.677267],[43.720851,41.679672],[43.722056,41.681229],[43.723019,41.682012],[43.724336,41.683069],[43.726971,41.68526],[43.728997,41.686942],[43.730802,41.689432],[43.732153,41.691454],[43.730739,41.692635],[43.729004,41.69443],[43.727792,41.695845],[43.726992,41.697264],[43.726079,41.699145],[43.725894,41.700687],[43.725965,41.702309],[43.726181,41.704396],[43.726781,41.706017],[43.726961,41.705832],[43.727075,41.705777]]]}},{"type":"Feature","properties":{"Name_Geo":"დაშბაშის კანიონის ბუნების ძეგლი","Name_Eng":"Dashbashi Canyon Nature Monument","Category":"ბუნების ძეგლი","Area_km2":6.71,"Total_ha":671,"isLabel":true},"geometry":{"type":"Polygon","coordinates":[[[44.142841,41.564152],[44.138294,41.562402],[44.135665,41.559666],[44.133872,41.558509],[44.131696,41.557563],[44.129984,41.557407],[44.127299,41.558888],[44.125198,41.559444],[44.122635,41.558924],[44.120734,41.558695],[44.117683,41.5591],[44.113854,41.560644],[44.112785,41.562208],[44.11428,41.564293],[44.115953,41.567238],[44.117327,41.571252],[44.121194,41.573927],[44.126478,41.57747],[44.127681,41.580053],[44.12764,41.583127],[44.128287,41.584562],[44.129232,41.58507],[44.130857,41.584653],[44.132484,41.584022],[44.134005,41.584248],[44.13464,41.586612],[44.134619,41.588185],[44.132687,41.590172],[44.130956,41.591446],[44.128769,41.591215],[44.128194,41.591496],[44.127599,41.593208],[44.12683,41.593774],[44.124846,41.592543],[44.123615,41.592033],[44.122258,41.59381],[44.118895,41.59593],[44.11807,41.597986],[44.118008,41.598139],[44.116948,41.59906],[44.116684,41.599093],[44.115326,41.599262],[44.114713,41.600668],[44.114146,41.60197],[44.113462,41.603252],[44.112218,41.603671],[44.111188,41.603486],[44.108892,41.603073],[44.106324,41.602767],[44.105175,41.603259],[44.106687,41.604129],[44.109728,41.604653],[44.112774,41.604748],[44.11439,41.605046],[44.115905,41.605701],[44.11647,41.606135],[44.116691,41.606499],[44.117123,41.607212],[44.117783,41.607646],[44.118735,41.607725],[44.11979,41.607232],[44.11933,41.606014],[44.118117,41.604145],[44.117755,41.602713],[44.118637,41.600932],[44.119888,41.600012],[44.123076,41.596676],[44.124991,41.595905],[44.127277,41.595922],[44.127576,41.595962],[44.127576,41.595962],[44.134122,41.596832],[44.136701,41.596279],[44.139864,41.594801],[44.142633,41.59425],[44.144349,41.59412],[44.14541,41.593127],[44.143811,41.591614],[44.140705,41.588802],[44.139784,41.586436],[44.139433,41.584217],[44.139844,41.581932],[44.140449,41.579363],[44.140189,41.577431],[44.13974,41.575425],[44.139291,41.57342],[44.13969,41.571993],[44.140464,41.57107],[44.142371,41.570869],[44.143143,41.570089],[44.144703,41.567312],[44.144919,41.565383],[44.142841,41.564152]]]}},{"type":"Feature","properties":{"Name_Geo":"სამშვილდის კანიონის ბუნების ძეგლი","Name_Eng":"Samshvilde Canyon Natural Monument","Category":"ბუნების ძეგლი","Area_km2":5.0,"Total_ha":500,"isLabel":true},"geometry":{"type":"Polygon","coordinates":[[[44.483112,41.505277],[44.500935,41.506547],[44.505492,41.506567],[44.504493,41.507754],[44.494975,41.508606],[44.489815,41.509626],[44.486632,41.511102],[44.485828,41.512588],[44.491976,41.512019],[44.500112,41.510565],[44.506654,41.510147],[44.515359,41.51212],[44.516929,41.514063],[44.51773,41.513024],[44.518341,41.510792],[44.521335,41.507826],[44.522141,41.506041],[44.521905,41.505947],[44.517992,41.504386],[44.492465,41.500105],[44.484355,41.498431],[44.476831,41.497801],[44.473668,41.497042],[44.471898,41.495395],[44.47152,41.493159],[44.470742,41.491368],[44.468373,41.490315],[44.461637,41.490432],[44.457288,41.489369],[44.455298,41.490402],[44.456061,41.493981],[44.458594,41.499057],[44.467081,41.502969],[44.483112,41.505277]]]}},{"type":"Feature","properties":{"Name_Geo":"ალგეთის ნაკრძალი","Name_Eng":"Algeti Reserve","Category":"ნაკრძალი","Area_km2":1.34,"Total_ha":134,"isLabel":true},"geometry":{"type":"Polygon","coordinates":[[[44.404693,41.722134],[44.401052,41.724511],[44.398544,41.727358],[44.396618,41.729278],[44.39715,41.730198],[44.398169,41.730099],[44.398549,41.729721],[44.398929,41.729342],[44.399308,41.728775],[44.399688,41.728397],[44.400067,41.728019],[44.40032,41.727641],[44.402405,41.72593],[44.403552,41.725737],[44.405081,41.725542],[44.406101,41.725538],[44.406741,41.725819],[44.406999,41.726195],[44.405505,41.727399],[44.403941,41.730523],[44.403818,41.731183],[44.40357,41.73222],[44.406568,41.730584],[44.405945,41.732566],[44.406967,41.732845],[44.408231,41.731143],[44.409114,41.729915],[44.409633,41.731138],[44.410509,41.728778],[44.410121,41.728025],[44.410971,41.725134],[44.412344,41.721916],[44.412717,41.720595],[44.412711,41.719841],[44.412326,41.719465],[44.412326,41.719465],[44.412326,41.719465],[44.412326,41.719465],[44.412188,41.718052],[44.411419,41.717489],[44.41141,41.716358],[44.412036,41.714659],[44.413554,41.712956],[44.413642,41.712038],[44.413002,41.711994],[44.411224,41.710621],[44.410343,41.709952],[44.408273,41.710757],[44.407892,41.71123],[44.40777,41.71189],[44.407392,41.712363],[44.406767,41.714156],[44.406518,41.715006],[44.406267,41.715667],[44.406029,41.716203],[44.405993,41.716284],[44.40589,41.716515],[44.40539,41.717837],[44.40527,41.71897],[44.404766,41.719726],[44.404815,41.721379],[44.404691,41.721946],[44.404693,41.722134]]]}},{"type":"Feature","properties":{"Name_Geo":"ალგეთის ნაკრძალი","Name_Eng":"Algeti Reserve","Category":"ნაკრძალი","Area_km2":0.72,"Total_ha":72,"isLabel":false},"geometry":{"type":"Polygon","coordinates":[[[44.387796,41.731248],[44.387796,41.731248],[44.385514,41.733237],[44.38552,41.733991],[44.385779,41.734556],[44.386036,41.734837],[44.387564,41.734454],[44.388069,41.733698],[44.389089,41.733694],[44.389095,41.734543],[44.388715,41.734827],[44.388464,41.735394],[44.388472,41.736525],[44.388603,41.736996],[44.389112,41.736899],[44.389743,41.73586],[44.390888,41.735573],[44.391021,41.736232],[44.391408,41.736891],[44.391918,41.736794],[44.392168,41.736134],[44.39216,41.735002],[44.392149,41.733494],[44.392904,41.732172],[44.393029,41.731794],[44.394174,41.731413],[44.39481,41.731222],[44.395188,41.73056],[44.394423,41.730563],[44.393786,41.73066],[44.393145,41.730191],[44.394162,41.729716],[44.394144,41.729647],[44.394649,41.728986],[44.39401,41.7288],[44.393245,41.728803],[44.392734,41.72871],[44.392584,41.728113],[44.394563,41.725728],[44.395629,41.723982],[44.395638,41.723053],[44.396249,41.71891],[44.396219,41.717086],[44.39555,41.71719],[44.394058,41.718541],[44.392944,41.720358],[44.392116,41.722105],[44.391643,41.722815],[44.391393,41.723381],[44.391143,41.724137],[44.390752,41.7251],[44.390694,41.726208],[44.389939,41.727847],[44.389904,41.727908],[44.389883,41.727944],[44.389561,41.728508],[44.389312,41.729263],[44.388682,41.730302],[44.387796,41.731248],[44.387796,41.731248]]]}},{"type":"Feature","properties":{"Name_Geo":"ალგეთის ნაკრძალი","Name_Eng":"Algeti Reserve","Category":"ნაკრძალი","Area_km2":0.63,"Total_ha":63,"isLabel":false},"geometry":{"type":"Polygon","coordinates":[[[44.381227,41.733939],[44.383264,41.73346],[44.384025,41.732797],[44.384788,41.732512],[44.385011,41.731309],[44.385033,41.731191],[44.385075,41.731181],[44.385797,41.730999],[44.386303,41.730432],[44.386668,41.72798],[44.385006,41.72742],[44.384872,41.726572],[44.384987,41.724875],[44.384732,41.724782],[44.383709,41.724503],[44.382431,41.724131],[44.38128,41.723758],[44.380767,41.723383],[44.380381,41.722913],[44.379996,41.722538],[44.378083,41.722545],[44.377575,41.72283],[44.377451,41.723302],[44.377329,41.724056],[44.377078,41.724623],[44.376571,41.725096],[44.37632,41.725663],[44.376323,41.72604],[44.376311,41.726068],[44.376197,41.726323],[44.376201,41.726794],[44.376334,41.727548],[44.376082,41.72802],[44.375705,41.728776],[44.376217,41.728962],[44.376345,41.729056],[44.376094,41.729623],[44.375969,41.73],[44.377372,41.729995],[44.377506,41.730843],[44.378405,41.731782],[44.379291,41.730742],[44.379671,41.730363],[44.380176,41.729701],[44.3803,41.729229],[44.380298,41.728947],[44.380422,41.728475],[44.380419,41.728098],[44.380543,41.727532],[44.380667,41.72706],[44.381684,41.726585],[44.382195,41.726771],[44.382834,41.726957],[44.382838,41.727523],[44.382716,41.728183],[44.382592,41.728655],[44.382214,41.729316],[44.381963,41.729883],[44.381713,41.730544],[44.381588,41.731016],[44.381592,41.731487],[44.380958,41.732055],[44.380713,41.733376],[44.381227,41.733939]]]}}]}