{"type":"FeatureCollection","features":[{"type":"Feature","properties":{"Name_Geo":"პანტიანი","Name_Eng":"Pantiani","Municipal_":"დმანისის მუნიციპა","Region_Geo":"ქვემო ქართლი","Cultural_E":"არა","Gastronomi":"არა","Ecological":"არა","Recreation":"დია","Adventure":"არა","Ethnograph":"არა","Scientific":"არა","Business":"არა"},"geometry":{"type":"Point","coordinates":[44.140555,41.306417]}},{"type":"Feature","properties":{"Name_Geo":"ქცია","Name_Eng":"Ktsia","Municipal_":"დმანისის მუნიციპა","Region_Geo":"ქვემო ქართლი","Cultural_E":"დია","Gastronomi":"არა","Ecological":"არა","Recreation":"არა","Adventure":"არა","Ethnograph":"არა","Scientific":"არა","Business":"არა"},"geometry":{"type":"Point","coordinates":[44.235351,41.46904]}},{"type":"Feature","properties":{"Name_Geo":"გუგუთი","Name_Eng":"Guguti","Municipal_":"დმანისის მუნიციპა","Region_Geo":"ქვემო ქართლი","Cultural_E":"არა","Gastronomi":"არა","Ecological":"არა","Recreation":"დია","Adventure":"არა","Ethnograph":"არა","Scientific":"არა","Business":"არა"},"geometry":{"type":"Point","coordinates":[44.319886,41.216601]}},{"type":"Feature","properties":{"Name_Geo":"პატარა დმანისი","Name_Eng":"Patara Dmanisi","Municipal_":"დმანისის მუნიციპა","Region_Geo":"ქვემო ქართლი","Cultural_E":"დია","Gastronomi":"არა","Ecological":"არა","Recreation":"არა","Adventure":"არა","Ethnograph":"არა","Scientific":"დია","Business":"არა"},"geometry":{"type":"Point","coordinates":[44.341795,41.328249]}},{"type":"Feature","properties":{"Name_Geo":"აკაურთა","Name_Eng":"Akaurta","Municipal_":"ბოლნისის მუნიციპა","Region_Geo":"ქვემო ქართლი","Cultural_E":"დია","Gastronomi":"არა","Ecological":"არა","Recreation":"არა","Adventure":"არა","Ethnograph":"არა","Scientific":"არა","Business":"არა"},"geometry":{"type":"Point","coordinates":[44.446057,41.463169]}},{"type":"Feature","properties":{"Name_Geo":"სამღერეთი","Name_Eng":"Samghereti","Municipal_":"თეთრიწყაროს მუნიც","Region_Geo":"ქვემო ქართლი","Cultural_E":"დია","Gastronomi":"არა","Ecological":"არა","Recreation":"არა","Adventure":"არა","Ethnograph":"არა","Scientific":"არა","Business":"არა"},"geometry":{"type":"Point","coordinates":[44.411242,41.507456]}},{"type":"Feature","properties":{"Name_Geo":"სამშვილდე","Name_Eng":"Samshvilde","Municipal_":"თეთრიწყაროს მუნიც","Region_Geo":"ქვემო ქართლი","Cultural_E":"დია","Gastronomi":"არა","Ecological":"დია","Recreation":"არა","Adventure":"არა","Ethnograph":"არა","Scientific":"დია","Business":"არა"},"geometry":{"type":"Point","coordinates":[44.49156,41.515216]}},{"type":"Feature","properties":{"Name_Geo":"ახქერფი","Name_Eng":"Akhkerpi","Municipal_":"მარნეულის მუნიციპ","Region_Geo":"ქვემო ქართლი","Cultural_E":"დია","Gastronomi":"არა","Ecological":"არა","Recreation":"დია","Adventure":"არა","Ethnograph":"არა","Scientific":"არა","Business":"არა"},"geometry":{"type":"Point","coordinates":[44.576202,41.219102]}},{"type":"Feature","properties":{"Name_Geo":"ნახიდური","Name_Eng":"Nakhiduri","Municipal_":"ბოლნისის მუნიციპა","Region_Geo":"ქვემო ქართლი","Cultural_E":"დია","Gastronomi":"არა","Ecological":"არა","Recreation":"არა","Adventure":"არა","Ethnograph":"არა","Scientific":"არა","Business":"არა"},"geometry":{"type":"Point","coordinates":[44.698506,41.469571]}},{"type":"Feature","properties":{"Name_Geo":"ღოუბანი","Name_Eng":"Ghoubani","Municipal_":"თეთრიწყაროს მუნიც","Region_Geo":"ქვემო ქართლი","Cultural_E":"დია","Gastronomi":"არა","Ecological":"არა","Recreation":"არა","Adventure":"არა","Ethnograph":"არა","Scientific":"არა","Business":"არა"},"geometry":{"type":"Point","coordinates":[44.711005,41.613289]}},{"type":"Feature","properties":{"Name_Geo":"ქვემო თელეთი","Name_Eng":"Kvemo Teleti","Municipal_":"გარდაბნის მუნიციპ","Region_Geo":"ქვემო ქართლი","Cultural_E":"არა","Gastronomi":"დია","Ecological":"არა","Recreation":"არა","Adventure":"არა","Ethnograph":"არა","Scientific":"არა","Business":"არა"},"geometry":{"type":"Point","coordinates":[44.860158,41.646059]}},{"type":"Feature","properties":{"Name_Geo":"მარტყოფი","Name_Eng":"Martkopi","Municipal_":"გარდაბნის მუნიციპ","Region_Geo":"ქვემო ქართლი","Cultural_E":"დია","Gastronomi":"არა","Ecological":"არა","Recreation":"არა","Adventure":"არა","Ethnograph":"არა","Scientific":"არა","Business":"არა"},"geometry":{"type":"Point","coordinates":[45.024948,41.788015]}},{"type":"Feature","properties":{"Name_Geo":"აიაზმა","Name_Eng":"Aiazma","Municipal_":"წალკის მუნიციპალი","Region_Geo":"ქვემო ქართლი","Cultural_E":"დია","Gastronomi":"არა","Ecological":"არა","Recreation":"არა","Adventure":"არა","Ethnograph":"არა","Scientific":"არა","Business":"არა"},"geometry":{"type":"Point","coordinates":[43.912246,41.578199]}},{"type":"Feature","properties":{"Name_Geo":"სანთა","Name_Eng":"Santa","Municipal_":"წალკის მუნიციპალი","Region_Geo":"ქვემო ქართლი","Cultural_E":"არა","Gastronomi":"არა","Ecological":"არა","Recreation":"არა","Adventure":"დია","Ethnograph":"არა","Scientific":"არა","Business":"არა"},"geometry":{"type":"Point","coordinates":[44.015286,41.651185]}},{"type":"Feature","properties":{"Name_Geo":"ტნუსი","Name_Eng":"Tnusi","Municipal_":"დმანისის მუნიციპა","Region_Geo":"ქვემო ქართლი","Cultural_E":"დია","Gastronomi":"არა","Ecological":"არა","Recreation":"არა","Adventure":"არა","Ethnograph":"არა","Scientific":"არა","Business":"არა"},"geometry":{"type":"Point","coordinates":[44.281771,41.330843]}},{"type":"Feature","properties":{"Name_Geo":"გოხნარი","Name_Eng":"Gokhnari","Municipal_":"თეთრიწყაროს მუნიც","Region_Geo":"ქვემო ქართლი","Cultural_E":"დია","Gastronomi":"არა","Ecological":"არა","Recreation":"არა","Adventure":"არა","Ethnograph":"არა","Scientific":"არა","Business":"არა"},"geometry":{"type":"Point","coordinates":[44.32372,41.653437]}},{"type":"Feature","properties":{"Name_Geo":"კიანეთი","Name_Eng":"Kianeti","Municipal_":"ბოლნისის მუნიციპა","Region_Geo":"ქვემო ქართლი","Cultural_E":"დია","Gastronomi":"არა","Ecological":"არა","Recreation":"არა","Adventure":"არა","Ethnograph":"არა","Scientific":"არა","Business":"არა"},"geometry":{"type":"Point","coordinates":[44.42461,41.427004]}},{"type":"Feature","properties":{"Name_Geo":"სამწევრისი","Name_Eng":"Samtsverisi","Municipal_":"ბოლნისის მუნიციპა","Region_Geo":"ქვემო ქართლი","Cultural_E":"დია","Gastronomi":"არა","Ecological":"არა","Recreation":"არა","Adventure":"არა","Ethnograph":"არა","Scientific":"არა","Business":"არა"},"geometry":{"type":"Point","coordinates":[44.507896,41.353104]}},{"type":"Feature","properties":{"Name_Geo":"აბელიანი","Name_Eng":"Abeliani","Municipal_":"თეთრიწყაროს მუნიც","Region_Geo":"ქვემო ქართლი","Cultural_E":"დია","Gastronomi":"არა","Ecological":"არა","Recreation":"არა","Adventure":"არა","Ethnograph":"არა","Scientific":"არა","Business":"არა"},"geometry":{"type":"Point","coordinates":[44.497004,41.570876]}},{"type":"Feature","properties":{"Name_Geo":"აბრამეთი","Name_Eng":"Abrameti","Municipal_":"თეთრიწყაროს მუნიც","Region_Geo":"ქვემო ქართლი","Cultural_E":"არა","Gastronomi":"არა","Ecological":"არა","Recreation":"დია","Adventure":"არა","Ethnograph":"არა","Scientific":"არა","Business":"არა"},"geometry":{"type":"Point","coordinates":[44.497299,41.612885]}},{"type":"Feature","properties":{"Name_Geo":"ბოლნისი","Name_Eng":"Bolnisi","Municipal_":"ბოლნისის მუნიციპა","Region_Geo":"ქვემო ქართლი","Cultural_E":"დია","Gastronomi":"დია","Ecological":"არა","Recreation":"დია","Adventure":"არა","Ethnograph":"დია","Scientific":"არა","Business":"არა"},"geometry":{"type":"Point","coordinates":[44.539111,41.449916]}},{"type":"Feature","properties":{"Name_Geo":"ამლევი","Name_Eng":"Amlevi","Municipal_":"თეთრიწყაროს მუნიც","Region_Geo":"ქვემო ქართლი","Cultural_E":"დია","Gastronomi":"არა","Ecological":"არა","Recreation":"დია","Adventure":"არა","Ethnograph":"არა","Scientific":"არა","Business":"არა"},"geometry":{"type":"Point","coordinates":[44.515846,41.626195]}},{"type":"Feature","properties":{"Name_Geo":"ორბეთი","Name_Eng":"Orbeti","Municipal_":"თეთრიწყაროს მუნიც","Region_Geo":"ქვემო ქართლი","Cultural_E":"არა","Gastronomi":"არა","Ecological":"არა","Recreation":"დია","Adventure":"არა","Ethnograph":"არა","Scientific":"არა","Business":"არა"},"geometry":{"type":"Point","coordinates":[44.523616,41.666881]}},{"type":"Feature","properties":{"Name_Geo":"ქოსალარი","Name_Eng":"Kosalari","Municipal_":"თეთრიწყაროს მუნიც","Region_Geo":"ქვემო ქართლი","Cultural_E":"დია","Gastronomi":"არა","Ecological":"არა","Recreation":"არა","Adventure":"არა","Ethnograph":"არა","Scientific":"დია","Business":"არა"},"geometry":{"type":"Point","coordinates":[44.612271,41.499364]}},{"type":"Feature","properties":{"Name_Geo":"მუხათი","Name_Eng":"Mukhati","Municipal_":"თეთრიწყაროს მუნიც","Region_Geo":"ქვემო ქართლი","Cultural_E":"დია","Gastronomi":"არა","Ecological":"არა","Recreation":"არა","Adventure":"არა","Ethnograph":"არა","Scientific":"არა","Business":"არა"},"geometry":{"type":"Point","coordinates":[44.765403,41.581805]}},{"type":"Feature","properties":{"Name_Geo":"შულავერი","Name_Eng":"Shulaveri","Municipal_":"მარნეულის მუნიციპ","Region_Geo":"ქვემო ქართლი","Cultural_E":"დია","Gastronomi":"არა","Ecological":"არა","Recreation":"არა","Adventure":"არა","Ethnograph":"არა","Scientific":"არა","Business":"არა"},"geometry":{"type":"Point","coordinates":[44.836741,41.369803]}},{"type":"Feature","properties":{"Name_Geo":"ახალი კუმისი","Name_Eng":"Akhali Kumisi","Municipal_":"გარდაბნის მუნიციპ","Region_Geo":"ქვემო ქართლი","Cultural_E":"არა","Gastronomi":"არა","Ecological":"არა","Recreation":"დია","Adventure":"არა","Ethnograph":"არა","Scientific":"არა","Business":"არა"},"geometry":{"type":"Point","coordinates":[44.844317,41.574727]}},{"type":"Feature","properties":{"Name_Geo":"კრწანისი","Name_Eng":"Krtsanisi","Municipal_":"გარდაბნის მუნიციპ","Region_Geo":"ქვემო ქართლი","Cultural_E":"არა","Gastronomi":"დია","Ecological":"არა","Recreation":"არა","Adventure":"არა","Ethnograph":"არა","Scientific":"არა","Business":"არა"},"geometry":{"type":"Point","coordinates":[44.901807,41.615212]}},{"type":"Feature","properties":{"Name_Geo":"ნორიო","Name_Eng":"Norio","Municipal_":"გარდაბნის მუნიციპ","Region_Geo":"ქვემო ქართლი","Cultural_E":"დია","Gastronomi":"არა","Ecological":"არა","Recreation":"არა","Adventure":"არა","Ethnograph":"არა","Scientific":"არა","Business":"არა"},"geometry":{"type":"Point","coordinates":[44.976568,41.790028]}},{"type":"Feature","properties":{"Name_Geo":"ქვემო ბოლნისი","Name_Eng":"Kvemo Bolnisi","Municipal_":"ბოლნისის მუნიციპა","Region_Geo":"ქვემო ქართლი","Cultural_E":"დია","Gastronomi":"არა","Ecological":"არა","Recreation":"არა","Adventure":"არა","Ethnograph":"არა","Scientific":"არა","Business":"არა"},"geometry":{"type":"Point","coordinates":[44.531817,41.401126]}},{"type":"Feature","properties":{"Name_Geo":"პატარა დურნუკი","Name_Eng":"Patara Durnuki","Municipal_":"თეთრიწყაროს მუნიც","Region_Geo":"ქვემო ქართლი","Cultural_E":"დია","Gastronomi":"არა","Ecological":"არა","Recreation":"არა","Adventure":"არა","Ethnograph":"არა","Scientific":"არა","Business":"არა"},"geometry":{"type":"Point","coordinates":[44.717556,41.528944]}},{"type":"Feature","properties":{"Name_Geo":"სადახლო","Name_Eng":"Sadakhlo","Municipal_":"მარნეულის მუნიციპ","Region_Geo":"ქვემო ქართლი","Cultural_E":"დია","Gastronomi":"არა","Ecological":"არა","Recreation":"არა","Adventure":"არა","Ethnograph":"არა","Scientific":"არა","Business":"არა"},"geometry":{"type":"Point","coordinates":[44.789526,41.243217]}},{"type":"Feature","properties":{"Name_Geo":"შაუმიანი","Name_Eng":"Shaumiani","Municipal_":"მარნეულის მუნიციპ","Region_Geo":"ქვემო ქართლი","Cultural_E":"დია","Gastronomi":"არა","Ecological":"არა","Recreation":"არა","Adventure":"არა","Ethnograph":"არა","Scientific":"არა","Business":"არა"},"geometry":{"type":"Point","coordinates":[44.762307,41.352355]}},{"type":"Feature","properties":{"Name_Geo":"ავრანლო","Name_Eng":"Avranlo","Municipal_":"წალკის მუნიციპალი","Region_Geo":"ქვემო ქართლი","Cultural_E":"დია","Gastronomi":"არა","Ecological":"არა","Recreation":"არა","Adventure":"არა","Ethnograph":"არა","Scientific":"არა","Business":"არა"},"geometry":{"type":"Point","coordinates":[43.891973,41.656369]}},{"type":"Feature","properties":{"Name_Geo":"ტბეთი","Name_Eng":"Tbeti","Municipal_":"წალკის მუნიციპალი","Region_Geo":"ქვემო ქართლი","Cultural_E":"დია","Gastronomi":"არა","Ecological":"არა","Recreation":"არა","Adventure":"არა","Ethnograph":"არა","Scientific":"არა","Business":"არა"},"geometry":{"type":"Point","coordinates":[44.049672,41.602753]}},{"type":"Feature","properties":{"Name_Geo":"ახა","Name_Eng":"Akha","Municipal_":"დმანისის მუნიციპა","Region_Geo":"ქვემო ქართლი","Cultural_E":"დია","Gastronomi":"არა","Ecological":"არა","Recreation":"არა","Adventure":"არა","Ethnograph":"არა","Scientific":"არა","Business":"არა"},"geometry":{"type":"Point","coordinates":[44.106488,41.45082]}},{"type":"Feature","properties":{"Name_Geo":"არჯევან-სარვანი","Name_Eng":"Arjevan-Sarvani","Municipal_":"წალკის მუნიციპალი","Region_Geo":"ქვემო ქართლი","Cultural_E":"დია","Gastronomi":"არა","Ecological":"არა","Recreation":"არა","Adventure":"არა","Ethnograph":"არა","Scientific":"არა","Business":"არა"},"geometry":{"type":"Point","coordinates":[44.158742,41.697798]}},{"type":"Feature","properties":{"Name_Geo":"ქვემო ოროზმანი","Name_Eng":"Kvemo Orozmani","Municipal_":"დმანისის მუნიციპა","Region_Geo":"ქვემო ქართლი","Cultural_E":"დია","Gastronomi":"არა","Ecological":"არა","Recreation":"არა","Adventure":"არა","Ethnograph":"არა","Scientific":"დია","Business":"არა"},"geometry":{"type":"Point","coordinates":[44.200092,41.305419]}},{"type":"Feature","properties":{"Name_Geo":"ბოსლები","Name_Eng":"Boslebi","Municipal_":"დმანისის მუნიციპა","Region_Geo":"ქვემო ქართლი","Cultural_E":"დია","Gastronomi":"არა","Ecological":"არა","Recreation":"არა","Adventure":"არა","Ethnograph":"არა","Scientific":"არა","Business":"არა"},"geometry":{"type":"Point","coordinates":[44.302803,41.355374]}},{"type":"Feature","properties":{"Name_Geo":"პატარა კლდეისი","Name_Eng":"Patara Kldeisi","Municipal_":"თეთრიწყაროს მუნიც","Region_Geo":"ქვემო ქართლი","Cultural_E":"დია","Gastronomi":"არა","Ecological":"არა","Recreation":"არა","Adventure":"დია","Ethnograph":"არა","Scientific":"დია","Business":"არა"},"geometry":{"type":"Point","coordinates":[44.276333,41.593942]}},{"type":"Feature","properties":{"Name_Geo":"დარბაზი","Name_Eng":"Darbazi","Municipal_":"ბოლნისის მუნიციპა","Region_Geo":"ქვემო ქართლი","Cultural_E":"დია","Gastronomi":"არა","Ecological":"არა","Recreation":"დია","Adventure":"არა","Ethnograph":"არა","Scientific":"არა","Business":"არა"},"geometry":{"type":"Point","coordinates":[44.327171,41.4144]}},{"type":"Feature","properties":{"Name_Geo":"კაზრეთი","Name_Eng":"Kazreti","Municipal_":"ბოლნისის მუნიციპა","Region_Geo":"ქვემო ქართლი","Cultural_E":"დია","Gastronomi":"არა","Ecological":"არა","Recreation":"დია","Adventure":"არა","Ethnograph":"არა","Scientific":"არა","Business":"არა"},"geometry":{"type":"Point","coordinates":[44.417262,41.382601]}},{"type":"Feature","properties":{"Name_Geo":"ქვეში","Name_Eng":"Kveshi","Municipal_":"ბოლნისის მუნიციპა","Region_Geo":"ქვემო ქართლი","Cultural_E":"დია","Gastronomi":"არა","Ecological":"არა","Recreation":"არა","Adventure":"არა","Ethnograph":"არა","Scientific":"არა","Business":"არა"},"geometry":{"type":"Point","coordinates":[44.44519,41.437512]}},{"type":"Feature","properties":{"Name_Geo":"დაღეთი","Name_Eng":"Dagheti","Municipal_":"თეთრიწყაროს მუნიც","Region_Geo":"ქვემო ქართლი","Cultural_E":"დია","Gastronomi":"არა","Ecological":"არა","Recreation":"არა","Adventure":"არა","Ethnograph":"არა","Scientific":"არა","Business":"არა"},"geometry":{"type":"Point","coordinates":[44.531727,41.527109]}},{"type":"Feature","properties":{"Name_Geo":"წყლულეთი","Name_Eng":"Tskluleti","Municipal_":"თეთრიწყაროს მუნიც","Region_Geo":"ქვემო ქართლი","Cultural_E":"არა","Gastronomi":"არა","Ecological":"არა","Recreation":"დია","Adventure":"არა","Ethnograph":"არა","Scientific":"არა","Business":"არა"},"geometry":{"type":"Point","coordinates":[44.582734,41.715653]}},{"type":"Feature","properties":{"Name_Geo":"მამხუტი","Name_Eng":"Mamkhuti","Municipal_":"ბოლნისის მუნიციპა","Region_Geo":"ქვემო ქართლი","Cultural_E":"დია","Gastronomi":"არა","Ecological":"არა","Recreation":"არა","Adventure":"არა","Ethnograph":"არა","Scientific":"არა","Business":"არა"},"geometry":{"type":"Point","coordinates":[44.718581,41.38247]}},{"type":"Feature","properties":{"Name_Geo":"ცურტავი","Name_Eng":"Tsurtavi","Municipal_":"ბოლნისის მუნიციპა","Region_Geo":"ქვემო ქართლი","Cultural_E":"დია","Gastronomi":"არა","Ecological":"არა","Recreation":"არა","Adventure":"არა","Ethnograph":"არა","Scientific":"არა","Business":"არა"},"geometry":{"type":"Point","coordinates":[44.707511,41.473818]}},{"type":"Feature","properties":{"Name_Geo":"ტანძია","Name_Eng":"Tandzia","Municipal_":"ბოლნისის მუნიციპა","Region_Geo":"ქვემო ქართლი","Cultural_E":"დია","Gastronomi":"არა","Ecological":"არა","Recreation":"არა","Adventure":"არა","Ethnograph":"არა","Scientific":"არა","Business":"არა"},"geometry":{"type":"Point","coordinates":[44.366212,41.452147]}},{"type":"Feature","properties":{"Name_Geo":"ვიზიროვკა","Name_Eng":"Vizirovka","Municipal_":"თეთრიწყაროს მუნიც","Region_Geo":"ქვემო ქართლი","Cultural_E":"არა","Gastronomi":"არა","Ecological":"არა","Recreation":"დია","Adventure":"არა","Ethnograph":"არა","Scientific":"არა","Business":"არა"},"geometry":{"type":"Point","coordinates":[44.32089,41.587183]}},{"type":"Feature","properties":{"Name_Geo":"გეტა","Name_Eng":"Geta","Municipal_":"ბოლნისის მუნიციპა","Region_Geo":"ქვემო ქართლი","Cultural_E":"დია","Gastronomi":"არა","Ecological":"არა","Recreation":"არა","Adventure":"არა","Ethnograph":"არა","Scientific":"არა","Business":"არა"},"geometry":{"type":"Point","coordinates":[44.379868,41.426492]}},{"type":"Feature","properties":{"Name_Geo":"ზემო ყარაბულაღი","Name_Eng":"Zemo Karabulakhi","Municipal_":"დმანისის მუნიციპა","Region_Geo":"ქვემო ქართლი","Cultural_E":"დია","Gastronomi":"არა","Ecological":"არა","Recreation":"არა","Adventure":"არა","Ethnograph":"არა","Scientific":"არა","Business":"არა"},"geometry":{"type":"Point","coordinates":[44.0965,41.415651]}},{"type":"Feature","properties":{"Name_Geo":"ორმაშენი","Name_Eng":"Ormasheni","Municipal_":"დმანისის მუნიციპა","Region_Geo":"ქვემო ქართლი","Cultural_E":"დია","Gastronomi":"არა","Ecological":"არა","Recreation":"არა","Adventure":"არა","Ethnograph":"არა","Scientific":"არა","Business":"არა"},"geometry":{"type":"Point","coordinates":[44.22818,41.404619]}},{"type":"Feature","properties":{"Name_Geo":"მამულა","Name_Eng":"Mamula","Municipal_":"დმანისის მუნიციპა","Region_Geo":"ქვემო ქართლი","Cultural_E":"დია","Gastronomi":"არა","Ecological":"არა","Recreation":"არა","Adventure":"არა","Ethnograph":"არა","Scientific":"არა","Business":"არა"},"geometry":{"type":"Point","coordinates":[44.195424,41.504433]}},{"type":"Feature","properties":{"Name_Geo":"საკირე","Name_Eng":"Sakire","Municipal_":"დმანისის მუნიციპა","Region_Geo":"ქვემო ქართლი","Cultural_E":"არა","Gastronomi":"არა","Ecological":"არა","Recreation":"არა","Adventure":"არა","Ethnograph":"დია","Scientific":"არა","Business":"არა"},"geometry":{"type":"Point","coordinates":[44.274826,41.2605]}},{"type":"Feature","properties":{"Name_Geo":"კაკლიანი (აზერბაიჯ","Name_Eng":"Kakliani (Azerbaijanuli)","Municipal_":"დმანისის მუნიციპა","Region_Geo":"ქვემო ქართლი","Cultural_E":"დია","Gastronomi":"არა","Ecological":"არა","Recreation":"არა","Adventure":"არა","Ethnograph":"არა","Scientific":"არა","Business":"არა"},"geometry":{"type":"Point","coordinates":[44.289368,41.372609]}},{"type":"Feature","properties":{"Name_Geo":"დიდი კლდეისი","Name_Eng":"Didi Kldeisi","Municipal_":"თეთრიწყაროს მუნიც","Region_Geo":"ქვემო ქართლი","Cultural_E":"დია","Gastronomi":"არა","Ecological":"არა","Recreation":"არა","Adventure":"დია","Ethnograph":"არა","Scientific":"არა","Business":"არა"},"geometry":{"type":"Point","coordinates":[44.252216,41.582892]}},{"type":"Feature","properties":{"Name_Geo":"ალექსეევკა","Name_Eng":"Alekseevka","Municipal_":"თეთრიწყაროს მუნიც","Region_Geo":"ქვემო ქართლი","Cultural_E":"არა","Gastronomi":"არა","Ecological":"არა","Recreation":"დია","Adventure":"არა","Ethnograph":"არა","Scientific":"არა","Business":"არა"},"geometry":{"type":"Point","coordinates":[44.32803,41.53796]}},{"type":"Feature","properties":{"Name_Geo":"ახალსოფელი","Name_Eng":"Akhalsopeli","Municipal_":"თეთრიწყაროს მუნიც","Region_Geo":"ქვემო ქართლი","Cultural_E":"დია","Gastronomi":"არა","Ecological":"არა","Recreation":"არა","Adventure":"არა","Ethnograph":"არა","Scientific":"არა","Business":"არა"},"geometry":{"type":"Point","coordinates":[44.338974,41.650586]}},{"type":"Feature","properties":{"Name_Geo":"მანგლისი","Name_Eng":"Manglisi","Municipal_":"თეთრიწყაროს მუნიც","Region_Geo":"ქვემო ქართლი","Cultural_E":"დია","Gastronomi":"არა","Ecological":"დია","Recreation":"დია","Adventure":"დია","Ethnograph":"არა","Scientific":"არა","Business":"არა"},"geometry":{"type":"Point","coordinates":[44.383238,41.696741]}},{"type":"Feature","properties":{"Name_Geo":"ქვემო არქევანი","Name_Eng":"Kvemo Arkevani","Municipal_":"ბოლნისის მუნიციპა","Region_Geo":"ქვემო ქართლი","Cultural_E":"დია","Gastronomi":"არა","Ecological":"არა","Recreation":"არა","Adventure":"არა","Ethnograph":"არა","Scientific":"არა","Business":"არა"},"geometry":{"type":"Point","coordinates":[44.749646,41.41808]}},{"type":"Feature","properties":{"Name_Geo":"კოდა","Name_Eng":"Koda","Municipal_":"თეთრიწყაროს მუნიც","Region_Geo":"ქვემო ქართლი","Cultural_E":"დია","Gastronomi":"არა","Ecological":"არა","Recreation":"არა","Adventure":"არა","Ethnograph":"არა","Scientific":"არა","Business":"არა"},"geometry":{"type":"Point","coordinates":[44.776223,41.581676]}},{"type":"Feature","properties":{"Name_Geo":"რუსთავი","Name_Eng":"Rustavi","Municipal_":"ქალაქ რუსთავის მუნ","Region_Geo":"ქვემო ქართლი","Cultural_E":"დია","Gastronomi":"არა","Ecological":"არა","Recreation":"არა","Adventure":"არა","Ethnograph":"არა","Scientific":"არა","Business":"დია"},"geometry":{"type":"Point","coordinates":[45.011485,41.543519]}},{"type":"Feature","properties":{"Name_Geo":"მუხროვანი","Name_Eng":"Mukhrovani","Municipal_":"გარდაბნის მუნიციპ","Region_Geo":"ქვემო ქართლი","Cultural_E":"არა","Gastronomi":"დია","Ecological":"არა","Recreation":"არა","Adventure":"არა","Ethnograph":"არა","Scientific":"არა","Business":"არა"},"geometry":{"type":"Point","coordinates":[45.098072,41.687974]}},{"type":"Feature","properties":{"Name_Geo":"დაშბაში","Name_Eng":"Dashbashi","Municipal_":"წალკის მუნიციპალი","Region_Geo":"ქვემო ქართლი","Cultural_E":"დია","Gastronomi":"არა","Ecological":"დია","Recreation":"არა","Adventure":"დია","Ethnograph":"არა","Scientific":"არა","Business":"არა"},"geometry":{"type":"Point","coordinates":[44.124281,41.585249]}},{"type":"Feature","properties":{"Name_Geo":"ბედიანი","Name_Eng":"Bediani","Municipal_":"დმანისის მუნიციპა","Region_Geo":"ქვემო ქართლი","Cultural_E":"დია","Gastronomi":"არა","Ecological":"არა","Recreation":"დია","Adventure":"არა","Ethnograph":"არა","Scientific":"არა","Business":"არა"},"geometry":{"type":"Point","coordinates":[44.251451,41.537854]}},{"type":"Feature","properties":{"Name_Geo":"ლიპი","Name_Eng":"Lipi","Municipal_":"თეთრიწყაროს მუნიც","Region_Geo":"ქვემო ქართლი","Cultural_E":"არა","Gastronomi":"არა","Ecological":"არა","Recreation":"დია","Adventure":"არა","Ethnograph":"არა","Scientific":"არა","Business":"არა"},"geometry":{"type":"Point","coordinates":[44.385486,41.520735]}},{"type":"Feature","properties":{"Name_Geo":"თეთრიწყარო","Name_Eng":"Tetritskaro","Municipal_":"თეთრიწყაროს მუნიც","Region_Geo":"ქვემო ქართლი","Cultural_E":"არა","Gastronomi":"არა","Ecological":"არა","Recreation":"დია","Adventure":"არა","Ethnograph":"არა","Scientific":"არა","Business":"არა"},"geometry":{"type":"Point","coordinates":[44.461791,41.544354]}},{"type":"Feature","properties":{"Name_Geo":"დისველი","Name_Eng":"Disveli","Municipal_":"ბოლნისის მუნიციპა","Region_Geo":"ქვემო ქართლი","Cultural_E":"დია","Gastronomi":"არა","Ecological":"არა","Recreation":"არა","Adventure":"არა","Ethnograph":"არა","Scientific":"არა","Business":"არა"},"geometry":{"type":"Point","coordinates":[44.558656,41.496665]}},{"type":"Feature","properties":{"Name_Geo":"ჩხიკვთა","Name_Eng":"Chkhikvta","Municipal_":"თეთრიწყაროს მუნიც","Region_Geo":"ქვემო ქართლი","Cultural_E":"დია","Gastronomi":"არა","Ecological":"არა","Recreation":"არა","Adventure":"არა","Ethnograph":"არა","Scientific":"არა","Business":"არა"},"geometry":{"type":"Point","coordinates":[44.5344,41.57434]}},{"type":"Feature","properties":{"Name_Geo":"წერაქვი","Name_Eng":"Tserakvi","Municipal_":"მარნეულის მუნიციპ","Region_Geo":"ქვემო ქართლი","Cultural_E":"დია","Gastronomi":"არა","Ecological":"არა","Recreation":"არა","Adventure":"არა","Ethnograph":"არა","Scientific":"არა","Business":"არა"},"geometry":{"type":"Point","coordinates":[44.656427,41.296084]}},{"type":"Feature","properties":{"Name_Geo":"ბალახაური","Name_Eng":"Balakhauri","Municipal_":"ბოლნისის მუნიციპა","Region_Geo":"ქვემო ქართლი","Cultural_E":"დია","Gastronomi":"არა","Ecological":"არა","Recreation":"არა","Adventure":"არა","Ethnograph":"არა","Scientific":"არა","Business":"არა"},"geometry":{"type":"Point","coordinates":[44.665696,41.450214]}},{"type":"Feature","properties":{"Name_Geo":"ასურეთი","Name_Eng":"Asureti","Municipal_":"თეთრიწყაროს მუნიც","Region_Geo":"ქვემო ქართლი","Cultural_E":"დია","Gastronomi":"დია","Ecological":"არა","Recreation":"დია","Adventure":"არა","Ethnograph":"დია","Scientific":"არა","Business":"არა"},"geometry":{"type":"Point","coordinates":[44.666971,41.594284]}},{"type":"Feature","properties":{"Name_Geo":"რეხა","Name_Eng":"Rekha","Municipal_":"წალკის მუნიციპალი","Region_Geo":"ქვემო ქართლი","Cultural_E":"დია","Gastronomi":"არა","Ecological":"არა","Recreation":"არა","Adventure":"არა","Ethnograph":"არა","Scientific":"არა","Business":"არა"},"geometry":{"type":"Point","coordinates":[43.850959,41.686027]}},{"type":"Feature","properties":{"Name_Geo":"იაყუბლო","Name_Eng":"Iakublo","Municipal_":"დმანისის მუნიციპა","Region_Geo":"ქვემო ქართლი","Cultural_E":"დია","Gastronomi":"არა","Ecological":"არა","Recreation":"არა","Adventure":"არა","Ethnograph":"არა","Scientific":"არა","Business":"არა"},"geometry":{"type":"Point","coordinates":[44.171018,41.336982]}},{"type":"Feature","properties":{"Name_Geo":"წალკა","Name_Eng":"Tsalka","Municipal_":"წალკის მუნიციპალი","Region_Geo":"ქვემო ქართლი","Cultural_E":"დია","Gastronomi":"არა","Ecological":"არა","Recreation":"დია","Adventure":"არა","Ethnograph":"დია","Scientific":"არა","Business":"არა"},"geometry":{"type":"Point","coordinates":[44.091341,41.59518]}},{"type":"Feature","properties":{"Name_Geo":"განახლება","Name_Eng":"Ganakhleba","Municipal_":"დმანისის მუნიციპა","Region_Geo":"ქვემო ქართლი","Cultural_E":"დია","Gastronomi":"არა","Ecological":"არა","Recreation":"არა","Adventure":"დია","Ethnograph":"არა","Scientific":"არა","Business":"არა"},"geometry":{"type":"Point","coordinates":[44.111506,41.487159]}},{"type":"Feature","properties":{"Name_Geo":"სარკინეთი","Name_Eng":"Sarkineti","Municipal_":"დმანისის მუნიციპა","Region_Geo":"ქვემო ქართლი","Cultural_E":"დია","Gastronomi":"არა","Ecological":"არა","Recreation":"არა","Adventure":"არა","Ethnograph":"არა","Scientific":"არა","Business":"არა"},"geometry":{"type":"Point","coordinates":[44.126037,41.495851]}},{"type":"Feature","properties":{"Name_Geo":"გომარეთი","Name_Eng":"Gomareti","Municipal_":"დმანისის მუნიციპა","Region_Geo":"ქვემო ქართლი","Cultural_E":"დია","Gastronomi":"არა","Ecological":"არა","Recreation":"არა","Adventure":"არა","Ethnograph":"არა","Scientific":"დია","Business":"არა"},"geometry":{"type":"Point","coordinates":[44.164116,41.497578]}},{"type":"Feature","properties":{"Name_Geo":"თრიალეთი","Name_Eng":"Trialeti","Municipal_":"წალკის მუნიციპალი","Region_Geo":"ქვემო ქართლი","Cultural_E":"დია","Gastronomi":"არა","Ecological":"არა","Recreation":"არა","Adventure":"არა","Ethnograph":"დია","Scientific":"არა","Business":"არა"},"geometry":{"type":"Point","coordinates":[44.108278,41.541209]}},{"type":"Feature","properties":{"Name_Geo":"ამამლო","Name_Eng":"Amamlo","Municipal_":"დმანისის მუნიციპა","Region_Geo":"ქვემო ქართლი","Cultural_E":"დია","Gastronomi":"არა","Ecological":"არა","Recreation":"დია","Adventure":"არა","Ethnograph":"არა","Scientific":"არა","Business":"არა"},"geometry":{"type":"Point","coordinates":[44.231653,41.279025]}},{"type":"Feature","properties":{"Name_Geo":"ზემო ოროზმანი","Name_Eng":"Zemo Orozmani","Municipal_":"დმანისის მუნიციპა","Region_Geo":"ქვემო ქართლი","Cultural_E":"დია","Gastronomi":"არა","Ecological":"არა","Recreation":"არა","Adventure":"არა","Ethnograph":"არა","Scientific":"არა","Business":"არა"},"geometry":{"type":"Point","coordinates":[44.18149,41.297177]}},{"type":"Feature","properties":{"Name_Geo":"დმანისი","Name_Eng":"Dmanisi","Municipal_":"დმანისის მუნიციპა","Region_Geo":"ქვემო ქართლი","Cultural_E":"დია","Gastronomi":"არა","Ecological":"არა","Recreation":"დია","Adventure":"არა","Ethnograph":"არა","Scientific":"დია","Business":"არა"},"geometry":{"type":"Point","coordinates":[44.203376,41.332192]}},{"type":"Feature","properties":{"Name_Geo":"ფიტარეთი","Name_Eng":"Pitareti","Municipal_":"თეთრიწყაროს მუნიც","Region_Geo":"ქვემო ქართლი","Cultural_E":"დია","Gastronomi":"არა","Ecological":"არა","Recreation":"არა","Adventure":"დია","Ethnograph":"არა","Scientific":"არა","Business":"არა"},"geometry":{"type":"Point","coordinates":[44.318743,41.479203]}},{"type":"Feature","properties":{"Name_Geo":"ივანოვკა","Name_Eng":"Ivanovka","Municipal_":"თეთრიწყაროს მუნიც","Region_Geo":"ქვემო ქართლი","Cultural_E":"არა","Gastronomi":"არა","Ecological":"არა","Recreation":"დია","Adventure":"არა","Ethnograph":"არა","Scientific":"არა","Business":"არა"},"geometry":{"type":"Point","coordinates":[44.334695,41.587743]}},{"type":"Feature","properties":{"Name_Geo":"იწრია","Name_Eng":"Itsria","Municipal_":"ბოლნისის მუნიციპა","Region_Geo":"ქვემო ქართლი","Cultural_E":"დია","Gastronomi":"არა","Ecological":"არა","Recreation":"არა","Adventure":"არა","Ethnograph":"არა","Scientific":"არა","Business":"არა"},"geometry":{"type":"Point","coordinates":[44.384515,41.452203]}},{"type":"Feature","properties":{"Name_Geo":"ფოლადაური","Name_Eng":"Poladauri","Municipal_":"ბოლნისის მუნიციპა","Region_Geo":"ქვემო ქართლი","Cultural_E":"დია","Gastronomi":"არა","Ecological":"არა","Recreation":"არა","Adventure":"არა","Ethnograph":"არა","Scientific":"არა","Business":"არა"},"geometry":{"type":"Point","coordinates":[44.502009,41.333859]}},{"type":"Feature","properties":{"Name_Geo":"დიდი დურნუკი","Name_Eng":"Didi Durnuki","Municipal_":"თეთრიწყაროს მუნიც","Region_Geo":"ქვემო ქართლი","Cultural_E":"დია","Gastronomi":"არა","Ecological":"არა","Recreation":"არა","Adventure":"არა","Ethnograph":"არა","Scientific":"არა","Business":"არა"},"geometry":{"type":"Point","coordinates":[44.693276,41.538859]}},{"type":"Feature","properties":{"Name_Geo":"კუშჩი","Name_Eng":"Kushchi","Municipal_":"მარნეულის მუნიციპ","Region_Geo":"ქვემო ქართლი","Cultural_E":"დია","Gastronomi":"არა","Ecological":"არა","Recreation":"არა","Adventure":"არა","Ethnograph":"არა","Scientific":"არა","Business":"არა"},"geometry":{"type":"Point","coordinates":[44.89094,41.340449]}},{"type":"Feature","properties":{"Name_Geo":"შახმარლო","Name_Eng":"Shakhmarlo","Municipal_":"დმანისის მუნიციპა","Region_Geo":"ქვემო ქართლი","Cultural_E":"დია","Gastronomi":"არა","Ecological":"არა","Recreation":"არა","Adventure":"არა","Ethnograph":"არა","Scientific":"არა","Business":"არა"},"geometry":{"type":"Point","coordinates":[44.139301,41.342003]}},{"type":"Feature","properties":{"Name_Geo":"ველისპირი","Name_Eng":"Velispiri","Municipal_":"დმანისის მუნიციპა","Region_Geo":"ქვემო ქართლი","Cultural_E":"დია","Gastronomi":"არა","Ecological":"არა","Recreation":"არა","Adventure":"არა","Ethnograph":"არა","Scientific":"არა","Business":"არა"},"geometry":{"type":"Point","coordinates":[44.105333,41.477623]}},{"type":"Feature","properties":{"Name_Geo":"ხრამჰესი","Name_Eng":"Khramhesi","Municipal_":"წალკის მუნიციპალი","Region_Geo":"ქვემო ქართლი","Cultural_E":"დია","Gastronomi":"არა","Ecological":"არა","Recreation":"არა","Adventure":"არა","Ethnograph":"არა","Scientific":"არა","Business":"არა"},"geometry":{"type":"Point","coordinates":[44.123627,41.550879]}},{"type":"Feature","properties":{"Name_Geo":"ბარეთი","Name_Eng":"Bareti","Municipal_":"წალკის მუნიციპალი","Region_Geo":"ქვემო ქართლი","Cultural_E":"არა","Gastronomi":"არა","Ecological":"არა","Recreation":"არა","Adventure":"დია","Ethnograph":"არა","Scientific":"არა","Business":"არა"},"geometry":{"type":"Point","coordinates":[44.154309,41.670215]}},{"type":"Feature","properties":{"Name_Geo":"ჭივჭავი","Name_Eng":"Chivchavi","Municipal_":"თეთრიწყაროს მუნიც","Region_Geo":"ქვემო ქართლი","Cultural_E":"დია","Gastronomi":"არა","Ecological":"არა","Recreation":"არა","Adventure":"დია","Ethnograph":"არა","Scientific":"არა","Business":"არა"},"geometry":{"type":"Point","coordinates":[44.420642,41.53138]}},{"type":"Feature","properties":{"Name_Geo":"ბოლნისი","Name_Eng":"Bolnisi","Municipal_":"ბოლნისის მუნიციპა","Region_Geo":"ქვემო ქართლი","Cultural_E":"დია","Gastronomi":"არა","Ecological":"არა","Recreation":"არა","Adventure":"არა","Ethnograph":"არა","Scientific":"არა","Business":"არა"},"geometry":{"type":"Point","coordinates":[44.505574,41.382485]}},{"type":"Feature","properties":{"Name_Geo":"გუდარეხი","Name_Eng":"Gudarekhi","Municipal_":"თეთრიწყაროს მუნიც","Region_Geo":"ქვემო ქართლი","Cultural_E":"დია","Gastronomi":"არა","Ecological":"არა","Recreation":"არა","Adventure":"არა","Ethnograph":"არა","Scientific":"დია","Business":"არა"},"geometry":{"type":"Point","coordinates":[44.458471,41.591835]}},{"type":"Feature","properties":{"Name_Geo":"ფარცხისი","Name_Eng":"Partskhisi","Municipal_":"თეთრიწყაროს მუნიც","Region_Geo":"ქვემო ქართლი","Cultural_E":"დია","Gastronomi":"არა","Ecological":"არა","Recreation":"არა","Adventure":"არა","Ethnograph":"არა","Scientific":"არა","Business":"არა"},"geometry":{"type":"Point","coordinates":[44.562078,41.576782]}},{"type":"Feature","properties":{"Name_Geo":"ხოჯორნი","Name_Eng":"Khojorni","Municipal_":"მარნეულის მუნიციპ","Region_Geo":"ქვემო ქართლი","Cultural_E":"დია","Gastronomi":"არა","Ecological":"არა","Recreation":"არა","Adventure":"არა","Ethnograph":"არა","Scientific":"არა","Business":"არა"},"geometry":{"type":"Point","coordinates":[44.692652,41.226742]}},{"type":"Feature","properties":{"Name_Geo":"კუმისი","Name_Eng":"Kumisi","Municipal_":"გარდაბნის მუნიციპ","Region_Geo":"ქვემო ქართლი","Cultural_E":"არა","Gastronomi":"არა","Ecological":"არა","Recreation":"დია","Adventure":"არა","Ethnograph":"არა","Scientific":"არა","Business":"არა"},"geometry":{"type":"Point","coordinates":[44.785574,41.614954]}},{"type":"Feature","properties":{"Name_Geo":"მარნეული","Name_Eng":"Marneuli","Municipal_":"მარნეულის მუნიციპ","Region_Geo":"ქვემო ქართლი","Cultural_E":"არა","Gastronomi":"დია","Ecological":"არა","Recreation":"არა","Adventure":"არა","Ethnograph":"არა","Scientific":"არა","Business":"არა"},"geometry":{"type":"Point","coordinates":[44.815505,41.471373]}},{"type":"Feature","properties":{"Name_Geo":"ზემო თელეთი","Name_Eng":"Zemo Teleti","Municipal_":"გარდაბნის მუნიციპ","Region_Geo":"ქვემო ქართლი","Cultural_E":"დია","Gastronomi":"დია","Ecological":"არა","Recreation":"არა","Adventure":"არა","Ethnograph":"არა","Scientific":"არა","Business":"არა"},"geometry":{"type":"Point","coordinates":[44.819172,41.640937]}}]}