{"type":"FeatureCollection","features":[{"type":"Feature","properties":{"Name_Geo":"მარტყოფი","Name_Eng":"Martkopi","Municipal_":"გარდაბნის მუნიციპ","Cellars":2},"geometry":{"type":"Point","coordinates":[45.024948,41.788015]}},{"type":"Feature","properties":{"Name_Geo":"სართიჭალა","Name_Eng":"Sartichala","Municipal_":"გარდაბნის მუნიციპ","Cellars":1},"geometry":{"type":"Point","coordinates":[45.177385,41.715006]}},{"type":"Feature","properties":{"Name_Geo":"მუხროვანი","Name_Eng":"Mukhrovani","Municipal_":"გარდაბნის მუნიციპ","Cellars":1},"geometry":{"type":"Point","coordinates":[45.098072,41.687974]}},{"type":"Feature","properties":{"Name_Geo":"კრწანისი","Name_Eng":"Krtsanisi","Municipal_":"გარდაბნის მუნიციპ","Cellars":1},"geometry":{"type":"Point","coordinates":[44.901807,41.615212]}},{"type":"Feature","properties":{"Name_Geo":"რუსთავი","Name_Eng":"Rustavi","Municipal_":"ქალაქ რუსთავის მუნ","Cellars":1},"geometry":{"type":"Point","coordinates":[45.011485,41.543519]}},{"type":"Feature","properties":{"Name_Geo":"თამარისი","Name_Eng":"Tamarisi","Municipal_":"მარნეულის მუნიციპ","Cellars":1},"geometry":{"type":"Point","coordinates":[44.743309,41.439768]}},{"type":"Feature","properties":{"Name_Geo":"ხატისსოფელი","Name_Eng":"Khatissopeli","Municipal_":"ბოლნისის მუნიციპა","Cellars":2},"geometry":{"type":"Point","coordinates":[44.581004,41.408122]}},{"type":"Feature","properties":{"Name_Geo":"ბოლნისი","Name_Eng":"Bolnisi","Municipal_":"ბოლნისის მუნიციპა","Cellars":1},"geometry":{"type":"Point","coordinates":[44.505574,41.382485]}},{"type":"Feature","properties":{"Name_Geo":"ბოლნისი","Name_Eng":"Bolnisi","Municipal_":"ბოლნისის მუნიციპა","Cellars":6},"geometry":{"type":"Point","coordinates":[44.539111,41.449916]}},{"type":"Feature","properties":{"Name_Geo":"რაჭისუბანი","Name_Eng":"Rachisubani","Municipal_":"ბოლნისის მუნიციპა","Cellars":1},"geometry":{"type":"Point","coordinates":[44.596399,41.448349]}},{"type":"Feature","properties":{"Name_Geo":"ტბისი","Name_Eng":"Tbisi","Municipal_":"თეთრიწყაროს მუნიც","Cellars":1},"geometry":{"type":"Point","coordinates":[44.5407,41.59099]}},{"type":"Feature","properties":{"Name_Geo":"ასურეთი","Name_Eng":"Asureti","Municipal_":"თეთრიწყაროს მუნიც","Cellars":1},"geometry":{"type":"Point","coordinates":[44.666971,41.594284]}},{"type":"Feature","properties":{"Name_Geo":"ალექსეევკა","Name_Eng":"Alekseevka","Municipal_":"თეთრიწყაროს მუნიც","Cellars":1},"geometry":{"type":"Point","coordinates":[44.32803,41.53796]}}]}